LINESTRING (3951880.000 4013905.000,3951875.000 4013895.000,3951875.000 4013890.000,3951870.000 4013885.000,3951870.000 4013880.000,3951865.000 4013870.000,3951865.000 4013850.000,3951860.000 4013830.000,3951860.000 4013810.000,3951865.000 4013775.000,3951870.000 4013730.000,3951875.000 4013700.000,3951875.000 4013685.000,3951880.000 4013650.000,3951880.000 4013640.000,3951880.000 4013600.000)
LINESTRING (3952300.000 4013035.000,3952240.000 4013045.000,3952185.000 4013050.000,3952175.000 4013055.000,3952145.000 4013060.000,3952120.000 4013065.000,3952115.000 4013065.000,3952075.000 4013080.000,3952050.000 4013085.000,3952035.000 4013090.000)
LINESTRING (3952300.000 4013035.000,3952300.000 4013095.000,3952300.000 4013120.000,3952300.000 4013135.000,3952300.000 4013160.000,3952300.000 4013165.000,3952295.000 4013245.000,3952295.000 4013275.000,3952295.000 4013300.000,3952295.000 4013320.000,3952295.000 4013335.000,3952290.000 4013350.000,3952290.000 4013360.000,3952290.000 4013395.000,3952285.000 4013420.000,3952285.000 4013430.000,3952280.000 4013460.000,3952280.000 4013480.000,3952275.000 4013510.000,3952270.000 4013555.000,3952265.000 4013600.000,3952245.000 4013640.000,3952225.000 4013670.000,3952205.000 4013705.000,3952200.000 4013715.000,3952180.000 4013750.000,3952160.000 4013790.000,3952150.000 4013810.000,3952140.000 4013845.000,3952130.000 4013860.000,3952115.000 4013890.000,3952110.000 4013900.000,3952110.000 4013905.000,3952110.000 4013915.000,3952105.000 4013925.000)
LINESTRING (3951255.000 4012645.000,3951245.000 4012650.000,3951135.000 4012685.000,3951015.000 4012730.000,3950975.000 4012745.000,3950935.000 4012760.000,3950880.000 4012780.000)
LINESTRING (3951545.000 4013205.000,3951625.000 4013250.000,3951620.000 4013365.000)
LINESTRING (3951615.000 4013855.000,3951620.000 4013855.000,3951625.000 4013860.000,3951630.000 4013865.000,3951630.000 4013870.000,3951630.000 4013875.000,3951630.000 4013880.000)
LINESTRING (3951725.000 4013695.000,3951750.000 4013760.000,3951790.000 4013855.000,3951795.000 4013860.000)
LINESTRING (3951720.000 4013195.000,3951670.000 4013220.000,3951625.000 4013250.000,3951580.000 4013290.000)
LINESTRING (3951610.000 4013370.000,3951620.000 4013365.000,3951695.000 4013330.000,3951765.000 4013300.000)
LINESTRING (3951655.000 4013555.000,3951675.000 4013545.000)
LINESTRING (3951600.000 4013410.000,3951620.000 4013400.000)
LINESTRING (3951505.000 4013125.000,3951725.000 4013695.000)
LINESTRING (3951700.000 4013680.000,3951695.000 4013665.000,3951675.000 4013610.000,3951655.000 4013555.000,3951650.000 4013540.000,3951635.000 4013505.000,3951630.000 4013485.000,3951620.000 4013465.000,3951600.000 4013410.000,3951585.000 4013375.000,3951555.000 4013300.000)
LINESTRING (3952110.000 4013900.000,3952105.000 4013890.000,3952105.000 4013885.000,3952100.000 4013875.000,3952095.000 4013870.000)
LINESTRING (3950805.000 4012870.000,3950800.000 4012860.000,3950790.000 4012850.000,3950785.000 4012835.000,3950775.000 4012815.000)
LINESTRING (3951555.000 4013300.000,3951550.000 4013290.000,3951520.000 4013215.000,3951505.000 4013175.000,3951490.000 4013135.000,3951485.000 4013130.000,3951460.000 4013055.000,3951435.000 4013000.000,3951420.000 4012960.000,3951415.000 4012945.000,3951405.000 4012920.000)
LINESTRING (3951545.000 4013205.000,3951580.000 4013290.000,3951590.000 4013315.000,3951610.000 4013370.000,3951620.000 4013400.000,3951645.000 4013470.000,3951675.000 4013535.000,3951675.000 4013545.000,3951700.000 4013610.000,3951720.000 4013655.000,3951730.000 4013680.000)
LINESTRING (3951290.000 4011905.000,3951300.000 4012010.000,3951310.000 4012090.000,3951315.000 4012165.000,3951315.000 4012350.000,3951315.000 4012420.000,3951315.000 4012470.000,3951315.000 4012525.000,3951315.000 4012575.000,3951315.000 4012590.000,3951315.000 4012600.000,3951320.000 4012615.000,3951320.000 4012630.000,3951325.000 4012645.000,3951330.000 4012660.000,3951410.000 4012870.000)
LINESTRING (3951400.000 4012875.000,3951315.000 4012660.000,3951315.000 4012650.000,3951310.000 4012635.000,3951305.000 4012620.000,3951305.000 4012605.000,3951305.000 4012595.000,3951300.000 4012580.000,3951305.000 4012480.000,3951305.000 4012375.000,3951300.000 4012265.000,3951300.000 4012145.000,3951295.000 4012100.000,3951285.000 4011990.000,3951280.000 4011905.000)
LINESTRING (3951715.000 4013700.000,3951665.000 4013565.000,3951500.000 4013130.000)
LINESTRING (3951505.000 4013175.000,3951505.000 4013170.000,3951505.000 4013165.000,3951510.000 4013160.000,3951515.000 4013160.000,3951520.000 4013160.000,3951525.000 4013160.000,3951530.000 4013160.000,3951530.000 4013165.000)
LINESTRING (3951335.000 4012655.000,3951365.000 4012720.000,3951375.000 4012750.000,3951390.000 4012785.000,3951400.000 4012815.000,3951420.000 4012875.000,3951435.000 4012910.000,3951445.000 4012935.000,3951465.000 4012990.000,3951485.000 4013050.000,3951510.000 4013115.000,3951515.000 4013125.000,3951530.000 4013165.000,3951545.000 4013205.000)
LINESTRING (3950570.000 4012865.000,3950620.000 4012855.000,3950710.000 4012820.000,3950740.000 4012810.000)
LINESTRING (3951770.000 4013880.000,3951780.000 4013880.000)
LINESTRING (3950785.000 4012795.000,3950795.000 4012790.000,3950930.000 4012745.000,3951055.000 4012695.000,3951125.000 4012670.000,3951185.000 4012650.000,3951240.000 4012635.000,3951250.000 4012630.000)
LINESTRING (3950805.000 4012870.000,3950825.000 4012910.000,3950850.000 4012975.000,3950885.000 4013040.000,3950915.000 4013110.000)
LINESTRING (3951230.000 4013915.000,3951240.000 4013915.000,3951255.000 4013910.000,3951370.000 4013880.000,3951390.000 4013875.000,3951455.000 4013860.000,3951480.000 4013855.000,3951500.000 4013850.000,3951510.000 4013850.000,3951575.000 4013850.000)
LINESTRING (3950790.000 4012815.000,3950800.000 4012845.000,3950805.000 4012870.000)
LINESTRING (3951575.000 4013850.000,3951615.000 4013855.000,3951665.000 4013860.000,3951715.000 4013865.000,3951770.000 4013880.000)
LINESTRING (3951795.000 4013905.000,3951780.000 4013865.000)
LINESTRING (3951795.000 4013860.000,3951810.000 4013905.000)
LINESTRING (3951730.000 4013680.000,3951740.000 4013700.000,3951780.000 4013805.000,3951795.000 4013840.000,3951795.000 4013845.000,3951790.000 4013855.000)
LINESTRING (3951775.000 4013860.000,3951770.000 4013855.000,3951770.000 4013850.000,3951765.000 4013845.000,3951735.000 4013765.000,3951700.000 4013680.000)
LINESTRING (3952060.000 4013875.000,3952155.000 4013845.000,3952270.000 4013815.000)
LINESTRING (3951500.000 4013130.000,3951415.000 4012915.000,3951400.000 4012875.000)
LINESTRING (3951410.000 4012870.000,3951505.000 4013125.000)
LINESTRING (3951780.000 4013865.000,3951775.000 4013860.000,3951765.000 4013815.000,3951715.000 4013700.000)
LINESTRING (3951880.000 4013600.000,3951870.000 4013570.000,3951855.000 4013525.000,3951825.000 4013445.000,3951820.000 4013435.000,3951795.000 4013365.000,3951785.000 4013345.000,3951765.000 4013300.000,3951720.000 4013195.000,3951695.000 4013145.000,3951675.000 4013095.000,3951665.000 4013070.000,3951640.000 4013010.000,3951615.000 4012955.000,3951605.000 4012935.000,3951585.000 4012895.000,3951550.000 4012815.000)
LINESTRING (3951960.000 4013575.000,3952005.000 4013560.000,3952110.000 4013540.000,3952120.000 4013540.000,3952130.000 4013540.000,3952140.000 4013535.000,3952165.000 4013530.000,3952215.000 4013520.000,3952275.000 4013510.000)
LINESTRING (3951900.000 4013135.000,3951845.000 4013150.000,3951785.000 4013170.000,3951760.000 4013180.000,3951720.000 4013195.000)
LINESTRING (3952035.000 4013090.000,3952000.000 4013100.000,3951945.000 4013120.000,3951900.000 4013135.000)
LINESTRING (3951550.000 4012815.000,3951505.000 4012715.000,3951480.000 4012650.000,3951445.000 4012575.000)
LINESTRING (3951205.000 4013830.000,3951225.000 4013900.000,3951225.000 4013905.000,3951230.000 4013915.000)
LINESTRING (3950915.000 4013110.000,3950950.000 4013195.000,3950985.000 4013265.000,3950990.000 4013280.000,3951020.000 4013345.000,3951055.000 4013425.000,3951090.000 4013510.000,3951095.000 4013520.000)
LINESTRING (3951880.000 4013600.000,3951915.000 4013590.000,3951950.000 4013580.000,3951960.000 4013575.000)
LINESTRING (3952270.000 4013815.000,3952280.000 4013810.000)
LINESTRING (3951670.000 4013870.000,3951655.000 4013875.000,3951640.000 4013875.000,3951630.000 4013880.000,3951590.000 4013895.000,3951580.000 4013900.000,3951515.000 4013925.000,3951480.000 4013940.000,3951420.000 4013955.000)
LINESTRING (3950775.000 4012815.000,3950765.000 4012820.000,3950755.000 4012825.000)
LINESTRING (3952760.000 4013615.000,3952755.000 4013615.000,3952715.000 4013615.000,3952685.000 4013620.000,3952645.000 4013630.000,3952620.000 4013635.000,3952610.000 4013640.000,3952605.000 4013640.000,3952595.000 4013645.000,3952585.000 4013650.000,3952555.000 4013670.000,3952545.000 4013675.000,3952525.000 4013685.000,3952430.000 4013745.000,3952410.000 4013755.000,3952350.000 4013790.000,3952320.000 4013805.000,3952295.000 4013815.000,3952275.000 4013820.000,3952215.000 4013835.000,3952160.000 4013855.000,3952130.000 4013860.000,3952095.000 4013870.000,3952045.000 4013880.000,3952040.000 4013885.000,3952025.000 4013885.000)
LINESTRING (3951095.000 4013520.000,3951105.000 4013540.000,3951125.000 4013575.000,3951130.000 4013590.000,3951145.000 4013630.000,3951155.000 4013660.000,3951160.000 4013680.000,3951165.000 4013690.000,3951170.000 4013705.000,3951185.000 4013770.000,3951190.000 4013780.000,3951205.000 4013830.000)
LINESTRING (3952055.000 4013875.000,3952060.000 4013875.000)
LINESTRING (3952280.000 4013810.000,3952290.000 4013805.000,3952320.000 4013795.000,3952360.000 4013775.000,3952385.000 4013760.000,3952410.000 4013740.000,3952525.000 4013675.000,3952545.000 4013665.000,3952555.000 4013655.000,3952590.000 4013640.000,3952600.000 4013635.000,3952600.000 4013630.000,3952605.000 4013630.000,3952610.000 4013630.000,3952625.000 4013625.000,3952655.000 4013615.000,3952670.000 4013615.000,3952690.000 4013610.000,3952710.000 4013605.000,3952720.000 4013605.000,3952770.000 4013600.000)
LINESTRING (3951995.000 4013880.000,3952010.000 4013880.000,3952020.000 4013880.000,3952045.000 4013875.000)
LINESTRING (3952055.000 4013875.000,3952045.000 4013880.000)
LINESTRING (3952045.000 4013875.000,3952055.000 4013875.000)
LINESTRING (3951820.000 4013885.000,3951825.000 4013885.000,3951835.000 4013890.000,3951845.000 4013890.000,3951850.000 4013890.000,3951860.000 4013890.000,3951870.000 4013890.000,3951875.000 4013890.000,3951885.000 4013890.000,3951985.000 4013880.000,3951995.000 4013880.000)
LINESTRING (3952045.000 4013875.000,3952070.000 4013865.000,3952105.000 4013855.000,3952140.000 4013845.000,3952200.000 4013825.000,3952235.000 4013815.000,3952265.000 4013810.000,3952290.000 4013800.000,3952305.000 4013795.000,3952320.000 4013795.000)
LINESTRING (3951405.000 4012920.000,3951395.000 4012885.000,3951345.000 4012755.000,3951335.000 4012735.000,3951310.000 4012670.000)
LINESTRING (3951335.000 4012735.000,3951335.000 4012730.000,3951335.000 4012725.000,3951335.000 4012720.000,3951340.000 4012715.000,3951345.000 4012715.000,3951350.000 4012715.000,3951355.000 4012715.000,3951360.000 4012715.000,3951365.000 4012720.000)
LINESTRING (3950775.000 4012815.000,3950775.000 4012810.000,3950770.000 4012800.000)
LINESTRING (3951795.000 4013890.000,3951715.000 4013875.000,3951695.000 4013870.000,3951670.000 4013870.000)
LINESTRING (3950880.000 4012780.000,3950840.000 4012795.000,3950800.000 4012810.000,3950790.000 4012815.000,3950775.000 4012815.000)
LINESTRING (3950740.000 4012810.000,3950760.000 4012805.000,3950770.000 4012800.000,3950785.000 4012795.000)
LINESTRING (3950800.000 4012860.000,3950780.000 4012845.000,3950770.000 4012835.000,3950765.000 4012830.000,3950755.000 4012825.000)
LINESTRING (3950755.000 4012825.000,3950645.000 4012860.000,3950630.000 4012865.000,3950610.000 4012870.000,3950600.000 4012875.000,3950575.000 4012880.000)
LINESTRING (3951415.000 4012915.000,3951405.000 4012920.000)
LINESTRING (3950785.000 4012795.000,3950790.000 4012815.000)
LINESTRING (3951580.000 4013290.000,3951555.000 4013300.000)
LINESTRING (3951795.000 4013890.000,3951795.000 4013905.000)
