LINESTRING (3952120.000 4012930.000,3952155.000 4012930.000)
LINESTRING (3952125.000 4013020.000,3952135.000 4013020.000,3952165.000 4013010.000)
LINESTRING (3952080.000 4012985.000,3952025.000 4012995.000)
LINESTRING (3952120.000 4013055.000,3952120.000 4013065.000)
LINESTRING (3952220.000 4012935.000,3952260.000 4012930.000,3952305.000 4012925.000)
LINESTRING (3952185.000 4012840.000,3952155.000 4012840.000)
LINESTRING (3952100.000 4012790.000,3952095.000 4012740.000)
LINESTRING (3952125.000 4012675.000,3952135.000 4012735.000)
LINESTRING (3952075.000 4012690.000,3952075.000 4012710.000,3952075.000 4012715.000,3952070.000 4012720.000,3952070.000 4012725.000,3952070.000 4012740.000)
LINESTRING (3951980.000 4012680.000,3951990.000 4012690.000,3952010.000 4012750.000)
LINESTRING (3951695.000 4012740.000,3951735.000 4012740.000)
LINESTRING (3952255.000 4013010.000,3952300.000 4013005.000)
LINESTRING (3951690.000 4012880.000,3951705.000 4012940.000,3951715.000 4012940.000)
LINESTRING (3951665.000 4012940.000,3951615.000 4012955.000)
LINESTRING (3951665.000 4012980.000,3951670.000 4012990.000,3951670.000 4013010.000)
LINESTRING (3951695.000 4013035.000,3951700.000 4013060.000,3951665.000 4013070.000)
LINESTRING (3951730.000 4013000.000,3951730.000 4013030.000,3951735.000 4013080.000)
LINESTRING (3951750.000 4013105.000,3951720.000 4013115.000,3951730.000 4013130.000,3951695.000 4013145.000)
LINESTRING (3951765.000 4013105.000,3951785.000 4013170.000)
LINESTRING (3951855.000 4013030.000,3951830.000 4013035.000)
LINESTRING (3951990.000 4013010.000,3951995.000 4013040.000,3952030.000 4013035.000)
LINESTRING (3951990.000 4012975.000,3952025.000 4012970.000)
LINESTRING (3951900.000 4012950.000,3951845.000 4012955.000)
LINESTRING (3951915.000 4012815.000,3951940.000 4012820.000)
LINESTRING (3951945.000 4012755.000,3951940.000 4012820.000)
LINESTRING (3952010.000 4013125.000,3952000.000 4013100.000)
LINESTRING (3951870.000 4013250.000,3951905.000 4013240.000,3951920.000 4013280.000,3951955.000 4013270.000)
LINESTRING (3951915.000 4013385.000,3951925.000 4013425.000)
LINESTRING (3951885.000 4013455.000,3951860.000 4013460.000,3951855.000 4013440.000)
LINESTRING (3951785.000 4013240.000,3951760.000 4013180.000)
LINESTRING (3951910.000 4013505.000,3951915.000 4013520.000,3951930.000 4013520.000,3951935.000 4013540.000,3951950.000 4013535.000)
LINESTRING (3951970.000 4013520.000,3951965.000 4013525.000,3951950.000 4013535.000)
LINESTRING (3951915.000 4013545.000,3951935.000 4013540.000)
LINESTRING (3951905.000 4013475.000,3951935.000 4013465.000)
LINESTRING (3951750.000 4013025.000,3951775.000 4013020.000,3951830.000 4013015.000)
LINESTRING (3951800.000 4012815.000,3951795.000 4012765.000)
LINESTRING (3951260.000 4012870.000,3951310.000 4012870.000,3951330.000 4012915.000)
LINESTRING (3951210.000 4013150.000,3951130.000 4013175.000)
LINESTRING (3951175.000 4013190.000,3951145.000 4013200.000)
LINESTRING (3951020.000 4013235.000,3951105.000 4013205.000,3951110.000 4013200.000,3951135.000 4013190.000)
LINESTRING (3950985.000 4013020.000,3950955.000 4013030.000)
LINESTRING (3951110.000 4013310.000,3951105.000 4013290.000,3951145.000 4013280.000)
LINESTRING (3951215.000 4013290.000,3951230.000 4013335.000)
LINESTRING (3951210.000 4013345.000,3951230.000 4013335.000,3951260.000 4013325.000,3951275.000 4013330.000)
LINESTRING (3951320.000 4013420.000,3951315.000 4013435.000)
LINESTRING (3951245.000 4013370.000,3951225.000 4013370.000,3951225.000 4013410.000)
LINESTRING (3951370.000 4013420.000,3951385.000 4013420.000,3951425.000 4013435.000)
LINESTRING (3951475.000 4012890.000,3951435.000 4012910.000)
LINESTRING (3951305.000 4012925.000,3951330.000 4012990.000)
LINESTRING (3951475.000 4012880.000,3951465.000 4012855.000)
LINESTRING (3951505.000 4013020.000,3951490.000 4012980.000)
LINESTRING (3951580.000 4013010.000,3951585.000 4013020.000)
LINESTRING (3951580.000 4013055.000,3951575.000 4013025.000)
LINESTRING (3951570.000 4013055.000,3951545.000 4013060.000)
LINESTRING (3951680.000 4013440.000,3951690.000 4013465.000)
LINESTRING (3951705.000 4013800.000,3951715.000 4013840.000,3951715.000 4013865.000,3951715.000 4013875.000)
LINESTRING (3951350.000 4013760.000,3951375.000 4013755.000,3951380.000 4013790.000)
LINESTRING (3951335.000 4013670.000,3951345.000 4013730.000)
LINESTRING (3951495.000 4013830.000,3951495.000 4013835.000,3951500.000 4013850.000)
LINESTRING (3951495.000 4013835.000,3951505.000 4013825.000,3951570.000 4013820.000)
LINESTRING (3951495.000 4013795.000,3951500.000 4013815.000,3951505.000 4013825.000,3951510.000 4013850.000)
LINESTRING (3951665.000 4013735.000,3951695.000 4013725.000,3951705.000 4013770.000)
LINESTRING (3951395.000 4013035.000,3951405.000 4013075.000)
LINESTRING (3951655.000 4013915.000,3951640.000 4013875.000)
LINESTRING (3951790.000 4013680.000,3951790.000 4013700.000)
LINESTRING (3951805.000 4013720.000,3951790.000 4013700.000,3951775.000 4013700.000)
LINESTRING (3951740.000 4013700.000,3951775.000 4013700.000,3951765.000 4013730.000,3951765.000 4013750.000,3951775.000 4013770.000,3951790.000 4013785.000,3951795.000 4013800.000,3951815.000 4013825.000)
LINESTRING (3951340.000 4013855.000,3951340.000 4013860.000,3951360.000 4013855.000)
LINESTRING (3951360.000 4013575.000,3951370.000 4013605.000)
LINESTRING (3951335.000 4013495.000,3951315.000 4013435.000)
LINESTRING (3951440.000 4013550.000,3951420.000 4013550.000)
LINESTRING (3951445.000 4013540.000,3951475.000 4013525.000)
LINESTRING (3951360.000 4013505.000,3951365.000 4013520.000)
LINESTRING (3951310.000 4013645.000,3951320.000 4013640.000,3951330.000 4013670.000)
LINESTRING (3951920.000 4013630.000,3951880.000 4013640.000)
LINESTRING (3951895.000 4013770.000,3951865.000 4013775.000)
LINESTRING (3951540.000 4013540.000,3951500.000 4013555.000)
LINESTRING (3951695.000 4013510.000,3951730.000 4013500.000)
LINESTRING (3951365.000 4013090.000,3951370.000 4013115.000,3951370.000 4013170.000)
LINESTRING (3951370.000 4013115.000,3951410.000 4013105.000,3951405.000 4013075.000)
LINESTRING (3952275.000 4013665.000,3952225.000 4013670.000)
LINESTRING (3952195.000 4013610.000,3952195.000 4013635.000)
LINESTRING (3952095.000 4013680.000,3952055.000 4013680.000)
LINESTRING (3952140.000 4013645.000,3952165.000 4013645.000,3952170.000 4013630.000)
LINESTRING (3952155.000 4013715.000,3952200.000 4013715.000)
LINESTRING (3952155.000 4013735.000,3952155.000 4013745.000,3952180.000 4013750.000)
LINESTRING (3952110.000 4013795.000,3952105.000 4013820.000,3952105.000 4013855.000)
LINESTRING (3952060.000 4013810.000,3952070.000 4013865.000)
LINESTRING (3952005.000 4013645.000,3951970.000 4013665.000)
LINESTRING (3952005.000 4013790.000,3951955.000 4013810.000)
LINESTRING (3951995.000 4013855.000,3952015.000 4013855.000)
LINESTRING (3952015.000 4013690.000,3952015.000 4013710.000,3951980.000 4013720.000)
LINESTRING (3952160.000 4013885.000,3952160.000 4013855.000)
LINESTRING (3951915.000 4013605.000,3951915.000 4013590.000)
LINESTRING (3951935.000 4013610.000,3951945.000 4013645.000,3951950.000 4013660.000,3951955.000 4013670.000,3951955.000 4013685.000,3951970.000 4013680.000)
LINESTRING (3951915.000 4013670.000,3951930.000 4013670.000,3951930.000 4013675.000,3951955.000 4013670.000)
LINESTRING (3951995.000 4013520.000,3952005.000 4013560.000)
LINESTRING (3951985.000 4013505.000,3951970.000 4013520.000)
LINESTRING (3952100.000 4013440.000,3952105.000 4013465.000,3952120.000 4013470.000,3952125.000 4013505.000,3952120.000 4013540.000)
LINESTRING (3952105.000 4013490.000,3952105.000 4013500.000,3952125.000 4013505.000)
LINESTRING (3952175.000 4013410.000,3952180.000 4013445.000,3952140.000 4013450.000)
LINESTRING (3952200.000 4013385.000,3952195.000 4013385.000,3952195.000 4013355.000)
LINESTRING (3952260.000 4013425.000,3952285.000 4013420.000)
LINESTRING (3952265.000 4013315.000,3952295.000 4013320.000)
LINESTRING (3952170.000 4013315.000,3952215.000 4013315.000)
LINESTRING (3952270.000 4013240.000,3952270.000 4013300.000,3952295.000 4013300.000)
LINESTRING (3952230.000 4013280.000,3952220.000 4013240.000)
LINESTRING (3952255.000 4013130.000,3952260.000 4013165.000,3952300.000 4013160.000)
LINESTRING (3952155.000 4013175.000,3952165.000 4013190.000)
LINESTRING (3952220.000 4013120.000,3952175.000 4013130.000)
LINESTRING (3952205.000 4013080.000,3952190.000 4013080.000,3952185.000 4013050.000)
LINESTRING (3952245.000 4013065.000,3952240.000 4013045.000)
LINESTRING (3952265.000 4013125.000,3952300.000 4013120.000)
LINESTRING (3950765.000 4012890.000,3950740.000 4012895.000,3950705.000 4012910.000,3950685.000 4012925.000)
LINESTRING (3950750.000 4012925.000,3950740.000 4012895.000)
LINESTRING (3950785.000 4012930.000,3950825.000 4012910.000)
LINESTRING (3950975.000 4012955.000,3950925.000 4012970.000)
LINESTRING (3951230.000 4012795.000,3951240.000 4012825.000)
LINESTRING (3951220.000 4012835.000,3951240.000 4012825.000,3951255.000 4012820.000)
LINESTRING (3951290.000 4012820.000,3951275.000 4012780.000,3951260.000 4012730.000)
LINESTRING (3951225.000 4012725.000,3951160.000 4012750.000)
LINESTRING (3951110.000 4012815.000,3951140.000 4012805.000,3951175.000 4012795.000)
LINESTRING (3951135.000 4012795.000,3951140.000 4012805.000,3951150.000 4012830.000)
LINESTRING (3951155.000 4012735.000,3951030.000 4012780.000)
LINESTRING (3951415.000 4012775.000,3951390.000 4012785.000)
LINESTRING (3951385.000 4012680.000,3951420.000 4012675.000,3951460.000 4012665.000)
LINESTRING (3951420.000 4012675.000,3951435.000 4012730.000)
LINESTRING (3951460.000 4012700.000,3951475.000 4012695.000,3951480.000 4012720.000)
LINESTRING (3951960.000 4013575.000,3951950.000 4013535.000,3951940.000 4013485.000)
LINESTRING (3951345.000 4012855.000,3951330.000 4012860.000,3951345.000 4012910.000)
LINESTRING (3951145.000 4013630.000,3951125.000 4013635.000,3951115.000 4013635.000,3951095.000 4013640.000)
LINESTRING (3951430.000 4013675.000,3951435.000 4013695.000)
LINESTRING (3952295.000 4013885.000,3952300.000 4013860.000,3952280.000 4013850.000)
LINESTRING (3951465.000 4013000.000,3951460.000 4012990.000,3951460.000 4012985.000)
LINESTRING (3951440.000 4013000.000,3951460.000 4012990.000)
LINESTRING (3950760.000 4012805.000,3950765.000 4012820.000)
LINESTRING (3951940.000 4012820.000,3952005.000 4012825.000)
LINESTRING (3951095.000 4013545.000,3951105.000 4013540.000)
LINESTRING (3950800.000 4012810.000,3950795.000 4012790.000)
LINESTRING (3952215.000 4013565.000,3952215.000 4013520.000)
LINESTRING (3951915.000 4013545.000,3951790.000 4013680.000)
LINESTRING (3951935.000 4013610.000,3951960.000 4013575.000)
LINESTRING (3951570.000 4013820.000,3951765.000 4013750.000)
LINESTRING (3952105.000 4013500.000,3951985.000 4013505.000)
LINESTRING (3952070.000 4012740.000,3952100.000 4013440.000)
LINESTRING (3951370.000 4013170.000,3951910.000 4013505.000)
LINESTRING (3950765.000 4012890.000,3951365.000 4013090.000)
LINESTRING (3951150.000 4012830.000,3951395.000 4013035.000)
LINESTRING (3951275.000 4013330.000,3951370.000 4013170.000)
LINESTRING (3951920.000 4013280.000,3951940.000 4013485.000)
LINESTRING (3951730.000 4013130.000,3951870.000 4013250.000)
LINESTRING (3951135.000 4013190.000,3951215.000 4013290.000)
LINESTRING (3951440.000 4013000.000,3951395.000 4013035.000)
LINESTRING (3951385.000 4012680.000,3951175.000 4012795.000)
LINESTRING (3952005.000 4012825.000,3952070.000 4012740.000)
LINESTRING (3951230.000 4012795.000,3951175.000 4012795.000)
LINESTRING (3951145.000 4013630.000,3951210.000 4013345.000)
LINESTRING (3951705.000 4013800.000,3951775.000 4013770.000)
LINESTRING (3952260.000 4013165.000,3952100.000 4013440.000)
LINESTRING (3952155.000 4013735.000,3951970.000 4013680.000)
LINESTRING (3951360.000 4013855.000,3951495.000 4013835.000)
LINESTRING (3951225.000 4013370.000,3951210.000 4013345.000)
LINESTRING (3952165.000 4013010.000,3952255.000 4013130.000)
LINESTRING (3951260.000 4012870.000,3951240.000 4012825.000)
LINESTRING (3952110.000 4013795.000,3952155.000 4013745.000)
LINESTRING (3952195.000 4013385.000,3952100.000 4013440.000)
LINESTRING (3952030.000 4013035.000,3952125.000 4013020.000)
LINESTRING (3951370.000 4013420.000,3951275.000 4013330.000)
LINESTRING (3951290.000 4012820.000,3951255.000 4012820.000)
LINESTRING (3951980.000 4013720.000,3951970.000 4013680.000)
LINESTRING (3951700.000 4013060.000,3951720.000 4013115.000)
LINESTRING (3951735.000 4013080.000,3951750.000 4013105.000)
LINESTRING (3952270.000 4013240.000,3952260.000 4013165.000)
LINESTRING (3951715.000 4012940.000,3951730.000 4013000.000)
LINESTRING (3952165.000 4013645.000,3952155.000 4013735.000)
LINESTRING (3952010.000 4012750.000,3952070.000 4012740.000)
LINESTRING (3951380.000 4013790.000,3951360.000 4013855.000)
LINESTRING (3951885.000 4013455.000,3951910.000 4013505.000)
LINESTRING (3951320.000 4013420.000,3951370.000 4013420.000)
LINESTRING (3952220.000 4012935.000,3952165.000 4013010.000)
LINESTRING (3952185.000 4013050.000,3952165.000 4013010.000)
LINESTRING (3951345.000 4012910.000,3951330.000 4012915.000)
LINESTRING (3951750.000 4013025.000,3951730.000 4013030.000)
LINESTRING (3951475.000 4012695.000,3951460.000 4012665.000)
LINESTRING (3951670.000 4013010.000,3951695.000 4013035.000)
LINESTRING (3952280.000 4013850.000,3952180.000 4013750.000)
LINESTRING (3952140.000 4013450.000,3952120.000 4013470.000)
LINESTRING (3951705.000 4013770.000,3951705.000 4013800.000)
LINESTRING (3951145.000 4013280.000,3951215.000 4013290.000)
LINESTRING (3951330.000 4013670.000,3951350.000 4013760.000)
LINESTRING (3951570.000 4013055.000,3951665.000 4013070.000)
LINESTRING (3950785.000 4012930.000,3950750.000 4012925.000)
LINESTRING (3951990.000 4012975.000,3951990.000 4013010.000)
LINESTRING (3952215.000 4013315.000,3952195.000 4013355.000)
LINESTRING (3951695.000 4012740.000,3951690.000 4012880.000)
LINESTRING (3951580.000 4013055.000,3951570.000 4013055.000)
LINESTRING (3952055.000 4013680.000,3952015.000 4013690.000)
LINESTRING (3951585.000 4013020.000,3951575.000 4013025.000)
LINESTRING (3951915.000 4013605.000,3951935.000 4013610.000)
LINESTRING (3952155.000 4012930.000,3952220.000 4012935.000)
LINESTRING (3950955.000 4013030.000,3950825.000 4012910.000)
LINESTRING (3951655.000 4013915.000,3951715.000 4013875.000)
LINESTRING (3952155.000 4013715.000,3952155.000 4013735.000)
LINESTRING (3952165.000 4013190.000,3952260.000 4013165.000)
LINESTRING (3951155.000 4012735.000,3951175.000 4012795.000)
LINESTRING (3952095.000 4012740.000,3952070.000 4012740.000)
LINESTRING (3951335.000 4013670.000,3951330.000 4013670.000)
LINESTRING (3951370.000 4013605.000,3951320.000 4013640.000)
LINESTRING (3951160.000 4012750.000,3951155.000 4012735.000)
LINESTRING (3952070.000 4013865.000,3952105.000 4013855.000)
LINESTRING (3951435.000 4013695.000,3951375.000 4013755.000)
LINESTRING (3952300.000 4013005.000,3952305.000 4012925.000)
LINESTRING (3952240.000 4013045.000,3952255.000 4013010.000)
LINESTRING (3950975.000 4012955.000,3950985.000 4013020.000)
LINESTRING (3951095.000 4013545.000,3951115.000 4013635.000)
LINESTRING (3952220.000 4013120.000,3952255.000 4013130.000)
LINESTRING (3951845.000 4012955.000,3951830.000 4013015.000)
LINESTRING (3952000.000 4013100.000,3951995.000 4013040.000)
LINESTRING (3950800.000 4012810.000,3950765.000 4012890.000)
LINESTRING (3952260.000 4013425.000,3952200.000 4013385.000)
LINESTRING (3952160.000 4013855.000,3952105.000 4013855.000)
LINESTRING (3950765.000 4012820.000,3950800.000 4012810.000)
LINESTRING (3951360.000 4013505.000,3951335.000 4013495.000)
LINESTRING (3952230.000 4013280.000,3952215.000 4013315.000)
LINESTRING (3951935.000 4013465.000,3951940.000 4013485.000)
LINESTRING (3952215.000 4013565.000,3952170.000 4013630.000)
LINESTRING (3952225.000 4013670.000,3952200.000 4013715.000)
LINESTRING (3951420.000 4013550.000,3951365.000 4013520.000)
LINESTRING (3951865.000 4013775.000,3951815.000 4013825.000)
LINESTRING (3951925.000 4013425.000,3951935.000 4013465.000)
LINESTRING (3951415.000 4012775.000,3951435.000 4012730.000)
LINESTRING (3951830.000 4013035.000,3951830.000 4013015.000)
LINESTRING (3952005.000 4013790.000,3952060.000 4013810.000)
LINESTRING (3952155.000 4012840.000,3952100.000 4012790.000)
LINESTRING (3951435.000 4012910.000,3951460.000 4012985.000)
LINESTRING (3951665.000 4012940.000,3951665.000 4012980.000)
LINESTRING (3951690.000 4013465.000,3951855.000 4013440.000)
LINESTRING (3951970.000 4013665.000,3951970.000 4013680.000)
LINESTRING (3952025.000 4012995.000,3952025.000 4012970.000)
LINESTRING (3952195.000 4013635.000,3952170.000 4013630.000)
LINESTRING (3952120.000 4013055.000,3952125.000 4013020.000)
LINESTRING (3951305.000 4012925.000,3951330.000 4012915.000)
LINESTRING (3951475.000 4012880.000,3951475.000 4012890.000)
LINESTRING (3951130.000 4013175.000,3951135.000 4013190.000)
LINESTRING (3951760.000 4013180.000,3951730.000 4013130.000)
LINESTRING (3951500.000 4013555.000,3951440.000 4013550.000)
LINESTRING (3951445.000 4013540.000,3951440.000 4013550.000)
LINESTRING (3951795.000 4012765.000,3951735.000 4012740.000)
LINESTRING (3951490.000 4012980.000,3951460.000 4012985.000)
LINESTRING (3951765.000 4013105.000,3951750.000 4013105.000)
LINESTRING (3952265.000 4013125.000,3952255.000 4013130.000)
LINESTRING (3952265.000 4013315.000,3952270.000 4013300.000)
LINESTRING (3951920.000 4013630.000,3951935.000 4013610.000)
LINESTRING (3951695.000 4013510.000,3951690.000 4013465.000)
LINESTRING (3951995.000 4013520.000,3951985.000 4013505.000)
LINESTRING (3952135.000 4012735.000,3952095.000 4012740.000)
LINESTRING (3951145.000 4013200.000,3951135.000 4013190.000)
LINESTRING (3952015.000 4013855.000,3952070.000 4013865.000)
