LINESTRING (3951005.000 4012550.000,3951005.000 4012555.000,3951020.000 4012585.000,3951030.000 4012620.000,3951040.000 4012650.000,3951055.000 4012695.000)
LINESTRING (3950740.000 4012810.000,3950550.000 4012590.000,3950475.000 4012510.000)
LINESTRING (3950720.000 4013715.000,3950750.000 4013800.000,3950775.000 4013850.000)
LINESTRING (3950895.000 4012660.000,3950910.000 4012700.000,3950930.000 4012745.000)
LINESTRING (3950755.000 4013020.000,3950745.000 4013010.000,3950740.000 4012995.000,3950685.000 4012925.000,3950645.000 4012875.000)
LINESTRING (3951705.000 4012525.000,3951710.000 4012560.000,3951715.000 4012580.000,3951715.000 4012595.000,3951720.000 4012625.000,3951725.000 4012650.000,3951730.000 4012675.000,3951730.000 4012685.000,3951730.000 4012705.000,3951735.000 4012740.000,3951735.000 4012770.000)
LINESTRING (3950735.000 4013180.000,3950740.000 4013270.000,3950745.000 4013330.000,3950750.000 4013375.000,3950755.000 4013385.000,3950760.000 4013425.000,3950770.000 4013465.000,3950780.000 4013515.000,3950785.000 4013540.000)
LINESTRING (3951020.000 4013345.000,3950875.000 4013360.000)
LINESTRING (3951290.000 4013810.000,3951280.000 4013745.000,3951270.000 4013685.000,3951260.000 4013665.000,3951255.000 4013630.000,3951225.000 4013570.000,3951205.000 4013495.000)
LINESTRING (3951155.000 4013660.000,3951255.000 4013630.000,3951370.000 4013605.000,3951410.000 4013595.000,3951435.000 4013585.000)
LINESTRING (3951185.000 4013770.000,3951195.000 4013765.000,3951280.000 4013745.000,3951345.000 4013730.000,3951420.000 4013715.000,3951430.000 4013715.000,3951440.000 4013715.000,3951490.000 4013725.000,3951500.000 4013725.000,3951510.000 4013730.000,3951515.000 4013730.000)
LINESTRING (3951305.000 4013110.000,3951365.000 4013090.000,3951405.000 4013075.000,3951420.000 4013070.000,3951460.000 4013055.000)
LINESTRING (3951585.000 4012895.000,3951690.000 4012880.000,3951735.000 4012880.000,3951840.000 4012890.000,3952010.000 4012875.000)
LINESTRING (3951880.000 4013905.000,3951875.000 4013895.000,3951875.000 4013890.000,3951870.000 4013885.000,3951870.000 4013880.000,3951865.000 4013870.000,3951865.000 4013850.000,3951860.000 4013830.000,3951860.000 4013810.000,3951865.000 4013775.000,3951870.000 4013730.000,3951875.000 4013700.000,3951875.000 4013685.000,3951880.000 4013650.000,3951880.000 4013640.000,3951880.000 4013600.000)
LINESTRING (3952525.000 4013675.000,3952500.000 4013675.000,3952480.000 4013675.000,3952425.000 4013690.000,3952400.000 4013690.000,3952330.000 4013700.000,3952265.000 4013705.000,3952205.000 4013705.000)
LINESTRING (3952295.000 4013245.000,3952270.000 4013240.000,3952220.000 4013240.000,3952195.000 4013250.000,3952160.000 4013260.000,3952070.000 4013290.000,3951980.000 4013325.000)
LINESTRING (3952010.000 4013385.000,3952115.000 4013365.000,3952175.000 4013355.000,3952195.000 4013355.000,3952215.000 4013350.000,3952290.000 4013350.000)
LINESTRING (3951820.000 4013285.000,3951815.000 4013245.000,3951820.000 4013240.000,3951825.000 4013235.000,3951925.000 4013205.000)
LINESTRING (3952165.000 4012995.000,3952155.000 4012930.000,3952150.000 4012905.000,3952150.000 4012870.000,3952155.000 4012840.000,3952155.000 4012810.000)
LINESTRING (3951555.000 4013300.000,3951515.000 4013315.000,3951490.000 4013325.000,3951420.000 4013350.000,3951415.000 4013350.000,3951405.000 4013350.000,3951275.000 4013330.000)
LINESTRING (3950950.000 4013195.000,3951115.000 4013135.000,3951120.000 4013135.000,3951135.000 4013125.000,3951140.000 4013120.000,3951155.000 4013110.000,3951180.000 4013100.000,3951275.000 4013055.000)
LINESTRING (3951515.000 4013125.000,3951520.000 4013125.000,3951530.000 4013120.000,3951540.000 4013115.000,3951545.000 4013110.000,3951675.000 4013095.000)
LINESTRING (3951095.000 4013810.000,3951060.000 4013810.000)
LINESTRING (3951505.000 4012715.000,3951540.000 4012705.000,3951575.000 4012700.000,3951600.000 4012700.000,3951635.000 4012695.000,3951675.000 4012690.000,3951730.000 4012685.000,3951770.000 4012685.000,3951825.000 4012680.000,3951855.000 4012680.000,3951980.000 4012660.000,3952030.000 4012655.000,3952080.000 4012650.000,3952145.000 4012635.000,3952235.000 4012625.000,3952295.000 4012615.000,3952380.000 4012605.000)
LINESTRING (3951990.000 4012750.000,3951980.000 4012680.000,3951980.000 4012660.000,3951980.000 4012630.000,3951975.000 4012585.000,3951975.000 4012575.000,3951975.000 4012555.000,3951975.000 4012530.000,3951970.000 4012515.000,3951970.000 4012475.000)
LINESTRING (3951845.000 4012495.000,3951850.000 4012560.000,3951855.000 4012680.000,3951855.000 4012760.000)
LINESTRING (3951855.000 4012760.000,3951860.000 4012815.000,3951860.000 4012855.000,3951860.000 4012860.000,3951855.000 4012860.000,3951845.000 4012870.000,3951840.000 4012870.000,3951840.000 4012875.000,3951840.000 4012890.000,3951845.000 4012910.000,3951845.000 4012955.000,3951850.000 4012990.000)
LINESTRING (3951655.000 4012775.000,3951640.000 4012710.000,3951635.000 4012695.000,3951625.000 4012665.000,3951615.000 4012635.000,3951610.000 4012610.000)
LINESTRING (3952150.000 4012870.000,3952315.000 4012860.000)
LINESTRING (3952165.000 4012995.000,3952300.000 4012980.000)
LINESTRING (3952300.000 4013035.000,3952240.000 4013045.000,3952185.000 4013050.000,3952175.000 4013055.000,3952145.000 4013060.000,3952120.000 4013065.000,3952115.000 4013065.000,3952075.000 4013080.000,3952050.000 4013085.000,3952035.000 4013090.000)
LINESTRING (3952145.000 4013060.000,3952165.000 4013110.000,3952175.000 4013130.000,3952195.000 4013175.000,3952220.000 4013240.000)
LINESTRING (3952275.000 4013510.000,3952320.000 4013505.000,3952335.000 4013500.000,3952350.000 4013495.000,3952375.000 4013485.000,3952395.000 4013475.000,3952440.000 4013455.000,3952450.000 4013450.000,3952480.000 4013435.000,3952510.000 4013425.000)
LINESTRING (3952300.000 4013035.000,3952300.000 4013095.000,3952300.000 4013120.000,3952300.000 4013135.000,3952300.000 4013160.000,3952300.000 4013165.000,3952295.000 4013245.000,3952295.000 4013275.000,3952295.000 4013300.000,3952295.000 4013320.000,3952295.000 4013335.000,3952290.000 4013350.000,3952290.000 4013360.000,3952290.000 4013395.000,3952285.000 4013420.000,3952285.000 4013430.000,3952280.000 4013460.000,3952280.000 4013480.000,3952275.000 4013510.000,3952270.000 4013555.000,3952265.000 4013600.000,3952245.000 4013640.000,3952225.000 4013670.000,3952205.000 4013705.000,3952200.000 4013715.000,3952180.000 4013750.000,3952160.000 4013790.000,3952150.000 4013810.000,3952140.000 4013845.000,3952130.000 4013860.000,3952115.000 4013890.000,3952110.000 4013900.000,3952110.000 4013905.000,3952110.000 4013915.000,3952105.000 4013925.000)
LINESTRING (3952280.000 4013460.000,3952215.000 4013475.000,3952150.000 4013485.000)
LINESTRING (3952165.000 4013530.000,3952150.000 4013485.000,3952140.000 4013450.000,3952135.000 4013430.000,3952115.000 4013365.000)
LINESTRING (3951925.000 4013490.000,3951940.000 4013485.000)
LINESTRING (3951955.000 4013270.000,3952040.000 4013235.000,3952165.000 4013190.000,3952195.000 4013175.000)
LINESTRING (3952070.000 4013140.000,3952050.000 4013085.000)
LINESTRING (3952010.000 4013465.000,3952005.000 4013440.000,3951995.000 4013405.000,3952000.000 4013395.000,3952010.000 4013385.000,3951980.000 4013325.000,3951955.000 4013270.000,3951925.000 4013205.000,3951920.000 4013195.000)
LINESTRING (3951595.000 4013705.000,3951540.000 4013720.000,3951525.000 4013730.000,3951515.000 4013730.000,3951465.000 4013760.000,3951455.000 4013765.000,3951445.000 4013770.000,3951430.000 4013775.000,3951380.000 4013790.000,3951350.000 4013795.000,3951290.000 4013810.000,3951205.000 4013830.000)
LINESTRING (3951255.000 4012645.000,3951245.000 4012650.000,3951135.000 4012685.000,3951015.000 4012730.000,3950975.000 4012745.000,3950935.000 4012760.000,3950880.000 4012780.000)
LINESTRING (3950850.000 4012975.000,3950915.000 4012940.000,3950995.000 4012905.000,3951030.000 4012885.000,3951070.000 4012870.000,3951150.000 4012830.000,3951185.000 4012815.000,3951230.000 4012795.000,3951275.000 4012780.000,3951310.000 4012765.000,3951345.000 4012755.000)
LINESTRING (3951980.000 4013325.000,3951915.000 4013345.000,3951895.000 4013350.000,3951875.000 4013355.000,3951855.000 4013360.000,3951835.000 4013360.000,3951795.000 4013365.000)
LINESTRING (3951275.000 4013330.000,3951270.000 4013320.000,3951265.000 4013310.000,3951240.000 4013255.000,3951220.000 4013230.000)
LINESTRING (3951440.000 4013470.000,3951470.000 4013470.000,3951520.000 4013460.000,3951620.000 4013465.000)
LINESTRING (3951030.000 4012885.000,3950975.000 4012745.000)
LINESTRING (3950935.000 4012760.000,3950995.000 4012905.000,3951050.000 4013045.000)
LINESTRING (3950745.000 4013330.000,3950810.000 4013315.000,3950860.000 4013300.000)
LINESTRING (3950875.000 4013360.000,3950860.000 4013300.000)
LINESTRING (3950915.000 4013515.000,3950835.000 4013530.000,3950820.000 4013535.000)
LINESTRING (3950895.000 4013835.000,3950885.000 4013800.000,3950875.000 4013780.000,3950865.000 4013735.000,3950860.000 4013720.000,3950855.000 4013705.000,3950840.000 4013660.000)
LINESTRING (3951095.000 4013520.000,3951100.000 4013520.000,3951205.000 4013495.000,3951235.000 4013490.000)
LINESTRING (3951205.000 4013830.000,3951160.000 4013840.000,3951095.000 4013850.000)
LINESTRING (3950635.000 4012450.000,3950700.000 4012585.000,3950730.000 4012650.000,3950750.000 4012715.000,3950775.000 4012775.000,3950780.000 4012790.000)
LINESTRING (3950585.000 4013680.000,3950595.000 4013680.000,3950700.000 4013640.000)
LINESTRING (3950950.000 4013195.000,3950740.000 4013270.000)
LINESTRING (3950750.000 4013375.000,3950630.000 4013385.000)
LINESTRING (3950655.000 4013490.000,3950680.000 4013570.000,3950690.000 4013605.000,3950700.000 4013640.000,3950720.000 4013715.000)
LINESTRING (3950780.000 4013725.000,3950765.000 4013695.000)
LINESTRING (3950825.000 4013745.000,3950835.000 4013775.000,3950840.000 4013780.000,3950845.000 4013780.000,3950850.000 4013780.000,3950855.000 4013780.000,3950875.000 4013780.000)
LINESTRING (3950880.000 4013640.000,3950905.000 4013680.000,3950915.000 4013715.000)
LINESTRING (3951010.000 4013710.000,3951100.000 4013710.000)
LINESTRING (3951060.000 4013810.000,3951055.000 4013765.000)
LINESTRING (3950910.000 4013795.000,3950905.000 4013800.000,3950890.000 4013800.000,3950885.000 4013800.000)
LINESTRING (3950970.000 4013775.000,3951010.000 4013770.000)
LINESTRING (3951190.000 4013780.000,3951160.000 4013780.000,3951155.000 4013780.000,3951155.000 4013785.000,3951150.000 4013785.000,3951150.000 4013790.000,3951150.000 4013795.000,3951160.000 4013840.000)
LINESTRING (3950985.000 4013600.000,3951055.000 4013595.000,3951095.000 4013590.000)
LINESTRING (3950805.000 4013565.000,3950815.000 4013595.000)
LINESTRING (3950790.000 4013600.000,3950815.000 4013595.000,3950820.000 4013595.000,3950825.000 4013615.000)
LINESTRING (3950900.000 4013570.000,3950950.000 4013560.000)
LINESTRING (3950835.000 4013530.000,3950850.000 4013655.000)
LINESTRING (3950705.000 4013605.000,3950690.000 4013605.000)
LINESTRING (3950760.000 4013620.000,3950700.000 4013640.000)
LINESTRING (3950800.000 4013500.000,3950805.000 4013505.000,3950810.000 4013505.000,3950815.000 4013510.000,3950820.000 4013505.000,3950825.000 4013505.000,3950830.000 4013505.000,3950835.000 4013500.000,3950840.000 4013495.000,3950845.000 4013490.000,3950850.000 4013490.000,3950860.000 4013490.000)
LINESTRING (3950850.000 4013450.000,3950860.000 4013490.000)
LINESTRING (3950800.000 4013500.000,3950795.000 4013460.000)
LINESTRING (3950745.000 4013500.000,3950735.000 4013470.000)
LINESTRING (3950740.000 4013520.000,3950780.000 4013515.000)
LINESTRING (3950715.000 4013525.000,3950720.000 4013555.000)
LINESTRING (3950720.000 4013430.000,3950710.000 4013440.000,3950705.000 4013445.000,3950695.000 4013440.000,3950685.000 4013435.000)
LINESTRING (3950710.000 4013475.000,3950705.000 4013445.000)
LINESTRING (3950865.000 4013835.000,3950870.000 4013875.000)
LINESTRING (3950820.000 4013455.000,3950815.000 4013415.000,3950810.000 4013385.000,3950810.000 4013380.000,3950810.000 4013375.000,3950815.000 4013375.000,3950820.000 4013370.000)
LINESTRING (3950935.000 4013705.000,3950915.000 4013715.000)
LINESTRING (3950930.000 4013645.000,3950915.000 4013620.000)
LINESTRING (3950910.000 4013480.000,3950980.000 4013475.000)
LINESTRING (3950760.000 4013425.000,3950815.000 4013415.000)
LINESTRING (3951095.000 4013765.000,3951060.000 4013765.000,3951055.000 4013765.000)
LINESTRING (3950930.000 4013645.000,3950930.000 4013655.000,3950930.000 4013660.000,3950930.000 4013665.000,3950925.000 4013670.000,3950905.000 4013680.000)
LINESTRING (3950865.000 4013610.000,3950870.000 4013640.000)
LINESTRING (3951825.000 4012990.000,3951830.000 4013015.000,3951830.000 4013035.000,3951835.000 4013055.000,3951835.000 4013070.000,3951845.000 4013130.000,3951845.000 4013150.000)
LINESTRING (3952055.000 4012915.000,3952150.000 4012905.000)
LINESTRING (3952030.000 4012655.000,3952040.000 4012745.000)
LINESTRING (3951580.000 4012725.000,3951600.000 4012790.000)
LINESTRING (3951770.000 4012685.000,3951780.000 4012765.000)
LINESTRING (3951835.000 4013055.000,3951735.000 4013080.000,3951675.000 4013095.000)
LINESTRING (3951925.000 4012980.000,3951930.000 4013010.000,3951945.000 4013120.000)
LINESTRING (3951880.000 4013060.000,3951835.000 4013070.000)
LINESTRING (3951940.000 4012960.000,3951935.000 4012940.000,3951935.000 4012935.000,3951935.000 4012930.000,3951940.000 4012930.000,3951950.000 4012925.000,3952020.000 4012920.000)
LINESTRING (3951845.000 4013325.000,3951785.000 4013345.000)
LINESTRING (3951645.000 4013470.000,3951690.000 4013465.000,3951720.000 4013460.000,3951765.000 4013450.000,3951820.000 4013435.000)
LINESTRING (3951820.000 4013285.000,3951835.000 4013285.000,3951840.000 4013285.000,3951840.000 4013290.000,3951850.000 4013315.000,3951850.000 4013320.000,3951855.000 4013320.000,3951860.000 4013320.000,3951880.000 4013310.000,3951880.000 4013315.000,3951885.000 4013315.000,3951895.000 4013350.000)
LINESTRING (3952350.000 4012705.000,3952255.000 4012720.000,3952250.000 4012720.000,3952135.000 4012735.000,3952095.000 4012740.000,3952070.000 4012740.000,3952040.000 4012745.000,3952010.000 4012750.000,3951990.000 4012750.000)
LINESTRING (3951265.000 4013020.000,3951330.000 4012990.000,3951420.000 4012960.000)
LINESTRING (3951295.000 4012715.000,3951310.000 4012765.000,3951345.000 4012855.000)
LINESTRING (3951495.000 4012840.000,3951520.000 4012910.000,3951530.000 4012925.000,3951540.000 4012960.000,3951545.000 4012990.000,3951550.000 4013030.000,3951545.000 4013060.000,3951545.000 4013110.000)
LINESTRING (3951160.000 4012995.000,3951180.000 4013100.000)
LINESTRING (3951265.000 4013160.000,3951315.000 4013140.000)
LINESTRING (3951135.000 4013245.000,3951145.000 4013280.000,3951175.000 4013405.000)
LINESTRING (3951235.000 4013490.000,3951235.000 4013445.000,3951245.000 4013410.000)
LINESTRING (3951345.000 4013205.000,3951220.000 4013230.000,3951160.000 4013235.000,3951135.000 4013245.000,3950990.000 4013280.000)
LINESTRING (3951545.000 4013205.000,3951625.000 4013250.000,3951620.000 4013365.000)
LINESTRING (3951480.000 4012920.000,3951465.000 4012925.000,3951445.000 4012935.000)
LINESTRING (3951720.000 4013460.000,3951730.000 4013500.000,3951750.000 4013595.000)
LINESTRING (3951585.000 4013375.000,3951510.000 4013395.000,3951425.000 4013420.000)
LINESTRING (3951370.000 4013450.000,3951395.000 4013510.000,3951420.000 4013550.000,3951435.000 4013585.000,3951465.000 4013635.000,3951485.000 4013665.000,3951525.000 4013730.000)
LINESTRING (3951470.000 4013805.000,3951495.000 4013795.000,3951515.000 4013790.000,3951560.000 4013780.000)
LINESTRING (3951625.000 4013785.000,3951665.000 4013775.000,3951675.000 4013775.000,3951705.000 4013770.000,3951725.000 4013765.000,3951735.000 4013765.000)
LINESTRING (3951530.000 4013600.000,3951465.000 4013635.000,3951425.000 4013650.000,3951335.000 4013670.000,3951330.000 4013670.000,3951270.000 4013685.000)
LINESTRING (3951655.000 4013690.000,3951665.000 4013735.000,3951675.000 4013775.000)
LINESTRING (3951335.000 4013180.000,3951370.000 4013170.000,3951410.000 4013175.000,3951450.000 4013170.000)
LINESTRING (3951420.000 4013070.000,3951445.000 4013150.000,3951450.000 4013170.000,3951475.000 4013215.000,3951480.000 4013220.000,3951485.000 4013225.000,3951490.000 4013225.000,3951495.000 4013225.000,3951505.000 4013225.000,3951520.000 4013215.000)
LINESTRING (3951455.000 4013490.000,3951395.000 4013510.000,3951365.000 4013520.000,3951325.000 4013535.000,3951225.000 4013570.000)
LINESTRING (3951615.000 4013855.000,3951620.000 4013855.000,3951625.000 4013860.000,3951630.000 4013865.000,3951630.000 4013870.000,3951630.000 4013875.000,3951630.000 4013880.000)
LINESTRING (3951565.000 4013580.000,3951530.000 4013600.000)
LINESTRING (3951555.000 4013640.000,3951610.000 4013625.000,3951675.000 4013610.000)
LINESTRING (3951410.000 4013595.000,3951425.000 4013650.000,3951430.000 4013675.000)
LINESTRING (3951350.000 4013795.000,3951360.000 4013855.000,3951370.000 4013880.000)
LINESTRING (3951420.000 4013955.000,3951405.000 4013915.000,3951390.000 4013875.000)
LINESTRING (3951480.000 4013940.000,3951455.000 4013860.000)
LINESTRING (3951270.000 4013685.000,3951170.000 4013705.000)
LINESTRING (3951160.000 4013235.000,3951145.000 4013200.000,3951135.000 4013190.000,3951130.000 4013175.000,3951125.000 4013145.000,3951120.000 4013135.000)
LINESTRING (3951815.000 4013825.000,3951810.000 4013840.000,3951810.000 4013845.000,3951805.000 4013850.000,3951805.000 4013855.000,3951810.000 4013860.000,3951810.000 4013865.000,3951810.000 4013870.000,3951815.000 4013880.000,3951820.000 4013885.000)
LINESTRING (3951650.000 4013540.000,3951600.000 4013555.000,3951595.000 4013560.000,3951590.000 4013565.000,3951590.000 4013570.000,3951590.000 4013575.000,3951595.000 4013580.000,3951610.000 4013625.000)
LINESTRING (3951510.000 4013395.000,3951520.000 4013460.000)
LINESTRING (3951485.000 4013130.000,3951445.000 4013150.000)
LINESTRING (3950935.000 4013605.000,3950940.000 4013625.000,3950950.000 4013640.000,3950955.000 4013650.000,3950965.000 4013660.000,3950975.000 4013665.000,3950985.000 4013670.000,3951000.000 4013675.000,3951015.000 4013675.000,3951100.000 4013680.000)
LINESTRING (3951095.000 4013520.000,3951085.000 4013525.000,3951075.000 4013525.000,3950990.000 4013545.000,3950980.000 4013545.000,3950970.000 4013550.000,3950965.000 4013555.000,3950955.000 4013565.000,3950950.000 4013570.000,3950945.000 4013575.000,3950935.000 4013605.000,3950930.000 4013610.000,3950925.000 4013615.000,3950915.000 4013620.000,3950880.000 4013640.000,3950870.000 4013640.000,3950850.000 4013655.000,3950840.000 4013660.000,3950805.000 4013675.000,3950765.000 4013695.000,3950720.000 4013715.000)
LINESTRING (3951825.000 4013445.000,3951855.000 4013440.000,3951925.000 4013425.000,3951995.000 4013405.000)
LINESTRING (3951055.000 4013425.000,3951155.000 4013405.000,3951175.000 4013405.000,3951225.000 4013410.000,3951245.000 4013410.000,3951275.000 4013420.000,3951315.000 4013435.000,3951370.000 4013450.000,3951425.000 4013465.000,3951440.000 4013470.000)
LINESTRING (3951500.000 4013850.000,3951515.000 4013925.000)
LINESTRING (3951725.000 4013695.000,3951750.000 4013760.000,3951790.000 4013855.000,3951795.000 4013860.000)
LINESTRING (3951720.000 4013195.000,3951670.000 4013220.000,3951625.000 4013250.000,3951580.000 4013290.000)
LINESTRING (3951610.000 4013370.000,3951620.000 4013365.000,3951695.000 4013330.000,3951765.000 4013300.000)
LINESTRING (3951485.000 4013050.000,3951550.000 4013030.000)
LINESTRING (3951655.000 4013555.000,3951675.000 4013545.000)
LINESTRING (3951600.000 4013410.000,3951620.000 4013400.000)
LINESTRING (3951505.000 4013125.000,3951725.000 4013695.000)
LINESTRING (3951700.000 4013680.000,3951695.000 4013665.000,3951675.000 4013610.000,3951655.000 4013555.000,3951650.000 4013540.000,3951635.000 4013505.000,3951630.000 4013485.000,3951620.000 4013465.000,3951600.000 4013410.000,3951585.000 4013375.000,3951555.000 4013300.000)
LINESTRING (3952215.000 4013835.000,3952235.000 4013905.000)
LINESTRING (3952275.000 4013820.000,3952280.000 4013850.000)
LINESTRING (3952110.000 4013900.000,3952105.000 4013890.000,3952105.000 4013885.000,3952100.000 4013875.000,3952095.000 4013870.000)
LINESTRING (3952215.000 4013395.000,3952215.000 4013475.000)
LINESTRING (3952195.000 4013250.000,3952215.000 4013315.000,3952215.000 4013350.000)
LINESTRING (3952040.000 4013235.000,3952070.000 4013290.000)
LINESTRING (3952100.000 4013130.000,3952100.000 4013125.000,3952100.000 4013115.000,3952100.000 4013110.000,3952100.000 4013105.000,3952095.000 4013105.000,3952085.000 4013110.000,3952080.000 4013105.000,3952075.000 4013090.000,3952075.000 4013080.000)
LINESTRING (3952155.000 4013595.000,3952140.000 4013595.000,3952130.000 4013595.000,3952115.000 4013595.000,3952110.000 4013595.000,3952105.000 4013600.000,3952085.000 4013610.000,3952060.000 4013620.000,3952055.000 4013625.000,3952050.000 4013630.000,3952045.000 4013630.000,3952045.000 4013635.000,3952050.000 4013640.000,3952050.000 4013650.000,3952055.000 4013655.000,3952055.000 4013665.000,3952055.000 4013670.000,3952055.000 4013680.000,3952060.000 4013705.000,3952060.000 4013720.000,3952060.000 4013740.000,3952065.000 4013755.000,3952065.000 4013765.000,3952150.000 4013810.000)
LINESTRING (3950530.000 4013515.000,3950655.000 4013490.000,3950710.000 4013475.000,3950735.000 4013470.000,3950770.000 4013465.000,3950795.000 4013460.000,3950820.000 4013455.000,3950850.000 4013450.000,3950900.000 4013445.000,3950970.000 4013435.000,3951055.000 4013425.000)
LINESTRING (3950805.000 4012870.000,3950800.000 4012860.000,3950790.000 4012850.000,3950785.000 4012835.000,3950775.000 4012815.000)
LINESTRING (3950740.000 4013055.000,3950735.000 4013105.000,3950735.000 4013120.000,3950735.000 4013180.000)
LINESTRING (3950735.000 4013105.000,3950885.000 4013040.000)
LINESTRING (3950915.000 4012940.000,3950925.000 4012970.000,3950955.000 4013030.000,3950975.000 4013080.000)
LINESTRING (3951125.000 4013010.000,3951095.000 4012935.000,3951070.000 4012870.000,3951030.000 4012780.000,3951015.000 4012730.000)
LINESTRING (3952235.000 4012625.000,3952250.000 4012720.000)
LINESTRING (3951555.000 4013300.000,3951550.000 4013290.000,3951520.000 4013215.000,3951505.000 4013175.000,3951490.000 4013135.000,3951485.000 4013130.000,3951460.000 4013055.000,3951435.000 4013000.000,3951420.000 4012960.000,3951415.000 4012945.000,3951405.000 4012920.000)
LINESTRING (3951545.000 4013205.000,3951580.000 4013290.000,3951590.000 4013315.000,3951610.000 4013370.000,3951620.000 4013400.000,3951645.000 4013470.000,3951675.000 4013535.000,3951675.000 4013545.000,3951700.000 4013610.000,3951720.000 4013655.000,3951730.000 4013680.000)
LINESTRING (3951290.000 4011905.000,3951300.000 4012010.000,3951310.000 4012090.000,3951315.000 4012165.000,3951315.000 4012350.000,3951315.000 4012420.000,3951315.000 4012470.000,3951315.000 4012525.000,3951315.000 4012575.000,3951315.000 4012590.000,3951315.000 4012600.000,3951320.000 4012615.000,3951320.000 4012630.000,3951325.000 4012645.000,3951330.000 4012660.000,3951410.000 4012870.000)
LINESTRING (3951435.000 4013000.000,3951325.000 4013030.000,3951305.000 4013035.000,3951295.000 4013040.000,3951285.000 4013045.000,3951275.000 4013045.000)
LINESTRING (3950280.000 4013020.000,3950445.000 4013020.000,3950590.000 4013020.000,3950710.000 4013035.000,3950720.000 4013035.000,3950725.000 4013035.000,3950730.000 4013035.000,3950735.000 4013035.000,3950740.000 4013030.000,3950745.000 4013030.000,3950755.000 4013020.000,3950850.000 4012975.000)
LINESTRING (3951920.000 4013195.000,3951970.000 4013175.000,3952070.000 4013140.000,3952100.000 4013130.000,3952135.000 4013120.000,3952165.000 4013110.000)
LINESTRING (3951400.000 4012875.000,3951315.000 4012660.000,3951315.000 4012650.000,3951310.000 4012635.000,3951305.000 4012620.000,3951305.000 4012605.000,3951305.000 4012595.000,3951300.000 4012580.000,3951305.000 4012480.000,3951305.000 4012375.000,3951300.000 4012265.000,3951300.000 4012145.000,3951295.000 4012100.000,3951285.000 4011990.000,3951280.000 4011905.000)
LINESTRING (3951715.000 4013700.000,3951665.000 4013565.000,3951500.000 4013130.000)
LINESTRING (3951515.000 4013125.000,3951515.000 4013130.000,3951515.000 4013135.000,3951510.000 4013135.000,3951510.000 4013140.000,3951505.000 4013140.000,3951500.000 4013140.000,3951495.000 4013140.000,3951490.000 4013140.000,3951490.000 4013135.000)
LINESTRING (3951505.000 4013175.000,3951505.000 4013170.000,3951505.000 4013165.000,3951510.000 4013160.000,3951515.000 4013160.000,3951520.000 4013160.000,3951525.000 4013160.000,3951530.000 4013160.000,3951530.000 4013165.000)
LINESTRING (3951700.000 4013610.000,3951750.000 4013595.000)
LINESTRING (3951730.000 4013680.000,3951810.000 4013665.000,3951880.000 4013650.000)
LINESTRING (3952005.000 4012840.000,3952150.000 4012810.000,3952155.000 4012810.000,3952265.000 4012785.000,3952330.000 4012780.000)
LINESTRING (3951005.000 4014305.000,3951000.000 4014260.000,3950990.000 4014160.000,3950975.000 4014065.000,3950965.000 4014015.000,3950960.000 4013975.000,3950950.000 4013900.000,3950945.000 4013825.000)
LINESTRING (3951335.000 4012655.000,3951365.000 4012720.000,3951375.000 4012750.000,3951390.000 4012785.000,3951400.000 4012815.000,3951420.000 4012875.000,3951435.000 4012910.000,3951445.000 4012935.000,3951465.000 4012990.000,3951485.000 4013050.000,3951510.000 4013115.000,3951515.000 4013125.000,3951530.000 4013165.000,3951545.000 4013205.000)
LINESTRING (3950570.000 4012865.000,3950620.000 4012855.000,3950710.000 4012820.000,3950740.000 4012810.000)
LINESTRING (3951770.000 4013880.000,3951780.000 4013880.000)
LINESTRING (3950785.000 4012795.000,3950795.000 4012790.000,3950930.000 4012745.000,3951055.000 4012695.000,3951125.000 4012670.000,3951185.000 4012650.000,3951240.000 4012635.000,3951250.000 4012630.000)
LINESTRING (3950805.000 4012870.000,3950825.000 4012910.000,3950850.000 4012975.000,3950885.000 4013040.000,3950915.000 4013110.000)
LINESTRING (3951230.000 4013915.000,3951240.000 4013915.000,3951255.000 4013910.000,3951370.000 4013880.000,3951390.000 4013875.000,3951455.000 4013860.000,3951480.000 4013855.000,3951500.000 4013850.000,3951510.000 4013850.000,3951575.000 4013850.000)
LINESTRING (3950790.000 4012815.000,3950800.000 4012845.000,3950805.000 4012870.000)
LINESTRING (3950860.000 4013490.000,3950910.000 4013480.000)
LINESTRING (3951055.000 4013765.000,3951010.000 4013770.000)
LINESTRING (3950915.000 4013715.000,3950935.000 4013745.000,3950935.000 4013750.000,3950940.000 4013755.000,3950950.000 4013755.000,3950965.000 4013760.000,3950970.000 4013765.000,3950970.000 4013775.000,3950985.000 4013820.000)
LINESTRING (3950915.000 4013715.000,3950865.000 4013735.000)
LINESTRING (3950980.000 4013495.000,3950980.000 4013475.000,3950970.000 4013435.000)
LINESTRING (3951750.000 4013595.000,3951760.000 4013635.000)
LINESTRING (3951750.000 4013595.000,3951805.000 4013585.000,3951870.000 4013570.000)
LINESTRING (3951800.000 4013765.000,3951790.000 4013785.000,3951780.000 4013805.000)
LINESTRING (3951670.000 4013870.000,3951715.000 4013950.000)
LINESTRING (3951575.000 4013850.000,3951590.000 4013895.000)
LINESTRING (3951575.000 4013850.000,3951615.000 4013855.000,3951665.000 4013860.000,3951715.000 4013865.000,3951770.000 4013880.000)
LINESTRING (3951810.000 4013665.000,3951810.000 4013675.000,3951810.000 4013690.000,3951810.000 4013705.000,3951805.000 4013720.000,3951805.000 4013740.000,3951800.000 4013755.000,3951800.000 4013765.000)
LINESTRING (3951850.000 4012990.000,3951825.000 4012990.000,3951730.000 4013000.000,3951670.000 4013010.000,3951640.000 4013010.000)
LINESTRING (3951595.000 4013705.000,3951600.000 4013715.000,3951605.000 4013725.000,3951615.000 4013765.000,3951615.000 4013770.000,3951620.000 4013775.000,3951625.000 4013785.000,3951665.000 4013860.000)
LINESTRING (3951795.000 4013905.000,3951780.000 4013865.000)
LINESTRING (3951795.000 4013860.000,3951810.000 4013905.000)
LINESTRING (3951730.000 4013680.000,3951740.000 4013700.000,3951780.000 4013805.000,3951795.000 4013840.000,3951795.000 4013845.000,3951790.000 4013855.000)
LINESTRING (3951775.000 4013860.000,3951770.000 4013855.000,3951770.000 4013850.000,3951765.000 4013845.000,3951735.000 4013765.000,3951700.000 4013680.000)
LINESTRING (3951800.000 4013765.000,3951815.000 4013805.000,3951820.000 4013810.000,3951815.000 4013825.000)
LINESTRING (3952060.000 4013875.000,3952155.000 4013845.000,3952270.000 4013815.000)
LINESTRING (3951465.000 4012990.000,3951490.000 4012980.000,3951540.000 4012960.000,3951605.000 4012935.000)
LINESTRING (3951395.000 4012885.000,3951345.000 4012910.000,3951330.000 4012915.000,3951305.000 4012925.000,3951240.000 4012960.000,3951160.000 4012995.000,3951125.000 4013010.000)
LINESTRING (3951500.000 4013130.000,3951415.000 4012915.000,3951400.000 4012875.000)
LINESTRING (3951410.000 4012870.000,3951505.000 4013125.000)
LINESTRING (3951435.000 4013585.000,3951500.000 4013555.000)
LINESTRING (3951275.000 4013330.000,3951275.000 4013335.000,3951275.000 4013420.000)
LINESTRING (3951095.000 4012935.000,3951210.000 4012885.000)
LINESTRING (3951135.000 4012685.000,3951155.000 4012735.000,3951160.000 4012750.000,3951175.000 4012795.000,3951185.000 4012815.000,3951210.000 4012885.000,3951240.000 4012960.000,3951265.000 4013020.000,3951275.000 4013045.000,3951275.000 4013055.000,3951305.000 4013110.000,3951315.000 4013140.000,3951335.000 4013180.000,3951345.000 4013205.000,3951405.000 4013350.000,3951425.000 4013420.000,3951425.000 4013435.000,3951440.000 4013470.000,3951455.000 4013490.000,3951475.000 4013525.000,3951500.000 4013555.000,3951520.000 4013585.000,3951530.000 4013600.000,3951555.000 4013640.000)
LINESTRING (3950450.000 4013100.000,3950590.000 4013095.000,3950665.000 4013110.000,3950735.000 4013120.000)
LINESTRING (3951010.000 4013770.000,3951020.000 4013815.000)
LINESTRING (3952245.000 4013640.000,3952215.000 4013635.000,3952195.000 4013635.000,3952180.000 4013630.000,3952170.000 4013630.000,3952165.000 4013625.000,3952160.000 4013625.000,3952160.000 4013615.000,3952155.000 4013595.000)
LINESTRING (3951700.000 4013680.000,3951655.000 4013690.000,3951595.000 4013705.000)
LINESTRING (3951765.000 4013450.000,3951805.000 4013585.000,3951810.000 4013625.000,3951810.000 4013640.000,3951810.000 4013665.000)
LINESTRING (3951525.000 4013730.000,3951560.000 4013780.000,3951565.000 4013795.000,3951570.000 4013800.000,3951570.000 4013805.000,3951570.000 4013820.000,3951575.000 4013850.000)
LINESTRING (3951780.000 4013865.000,3951775.000 4013860.000,3951765.000 4013815.000,3951715.000 4013700.000)
LINESTRING (3951880.000 4013600.000,3951870.000 4013570.000,3951855.000 4013525.000,3951825.000 4013445.000,3951820.000 4013435.000,3951795.000 4013365.000,3951785.000 4013345.000,3951765.000 4013300.000,3951720.000 4013195.000,3951695.000 4013145.000,3951675.000 4013095.000,3951665.000 4013070.000,3951640.000 4013010.000,3951615.000 4012955.000,3951605.000 4012935.000,3951585.000 4012895.000,3951550.000 4012815.000)
LINESTRING (3951960.000 4013575.000,3952005.000 4013560.000,3952110.000 4013540.000,3952120.000 4013540.000,3952130.000 4013540.000,3952140.000 4013535.000,3952165.000 4013530.000,3952215.000 4013520.000,3952275.000 4013510.000)
LINESTRING (3951900.000 4013135.000,3951845.000 4013150.000,3951785.000 4013170.000,3951760.000 4013180.000,3951720.000 4013195.000)
LINESTRING (3952035.000 4013090.000,3952000.000 4013100.000,3951945.000 4013120.000,3951900.000 4013135.000)
LINESTRING (3951990.000 4012750.000,3951945.000 4012755.000,3951855.000 4012760.000,3951795.000 4012765.000,3951780.000 4012765.000,3951735.000 4012770.000)
LINESTRING (3952035.000 4013090.000,3952030.000 4013035.000,3952025.000 4012995.000,3952025.000 4012970.000,3952020.000 4012920.000,3952010.000 4012875.000,3952005.000 4012840.000,3952005.000 4012825.000,3951990.000 4012750.000)
LINESTRING (3951550.000 4012815.000,3951505.000 4012715.000,3951480.000 4012650.000,3951445.000 4012575.000)
LINESTRING (3951550.000 4012815.000,3951495.000 4012840.000,3951465.000 4012855.000,3951420.000 4012875.000)
LINESTRING (3950720.000 4013715.000,3950660.000 4013745.000,3950600.000 4013780.000)
LINESTRING (3950775.000 4013850.000,3950795.000 4013915.000,3950825.000 4014000.000,3950845.000 4014055.000,3950855.000 4014085.000,3950875.000 4014135.000,3950890.000 4014180.000,3950915.000 4014240.000,3950935.000 4014305.000)
LINESTRING (3951205.000 4013830.000,3951225.000 4013900.000,3951225.000 4013905.000,3951230.000 4013915.000)
LINESTRING (3950915.000 4013110.000,3950950.000 4013195.000,3950985.000 4013265.000,3950990.000 4013280.000,3951020.000 4013345.000,3951055.000 4013425.000,3951090.000 4013510.000,3951095.000 4013520.000)
LINESTRING (3950915.000 4013110.000,3950755.000 4013180.000,3950745.000 4013180.000,3950735.000 4013180.000)
LINESTRING (3950595.000 4013185.000,3950735.000 4013180.000)
LINESTRING (3951965.000 4013720.000,3951950.000 4013725.000,3951930.000 4013730.000,3951920.000 4013730.000,3951905.000 4013730.000,3951895.000 4013730.000,3951890.000 4013730.000,3951885.000 4013730.000,3951885.000 4013725.000,3951885.000 4013720.000,3951885.000 4013715.000,3951885.000 4013705.000,3951885.000 4013695.000,3951880.000 4013690.000,3951875.000 4013685.000)
LINESTRING (3951880.000 4013600.000,3951915.000 4013590.000,3951950.000 4013580.000,3951960.000 4013575.000)
LINESTRING (3951095.000 4013810.000,3951095.000 4013765.000,3951100.000 4013710.000)
LINESTRING (3951095.000 4013850.000,3951095.000 4013810.000)
LINESTRING (3951455.000 4013860.000,3951430.000 4013775.000)
LINESTRING (3952270.000 4013815.000,3952280.000 4013810.000)
LINESTRING (3951735.000 4012880.000,3951735.000 4012825.000,3951735.000 4012770.000)
LINESTRING (3951735.000 4012770.000,3951655.000 4012775.000,3951630.000 4012775.000,3951600.000 4012790.000,3951550.000 4012815.000)
LINESTRING (3952135.000 4013430.000,3952100.000 4013440.000,3952010.000 4013465.000)
LINESTRING (3950755.000 4013850.000,3950760.000 4013850.000,3950760.000 4013855.000,3950755.000 4013855.000,3950755.000 4013850.000)
LINESTRING (3951670.000 4013870.000,3951655.000 4013875.000,3951640.000 4013875.000,3951630.000 4013880.000,3951590.000 4013895.000,3951580.000 4013900.000,3951515.000 4013925.000,3951480.000 4013940.000,3951420.000 4013955.000)
LINESTRING (3951845.000 4013130.000,3951850.000 4013130.000,3951870.000 4013125.000)
LINESTRING (3951850.000 4012990.000,3951865.000 4012990.000,3951875.000 4012985.000,3951885.000 4012985.000,3951890.000 4012985.000,3951895.000 4012980.000)
LINESTRING (3952020.000 4013880.000,3952015.000 4013855.000,3952005.000 4013790.000,3952005.000 4013770.000,3952000.000 4013760.000,3951990.000 4013745.000,3951985.000 4013730.000,3951980.000 4013720.000,3951975.000 4013700.000,3951970.000 4013680.000,3951970.000 4013665.000,3951960.000 4013640.000,3951960.000 4013625.000,3951950.000 4013580.000)
LINESTRING (3951845.000 4013790.000,3951835.000 4013785.000,3951825.000 4013760.000,3951805.000 4013770.000,3951805.000 4013775.000,3951820.000 4013810.000,3951810.000 4013855.000,3951820.000 4013880.000,3951845.000 4013885.000,3951860.000 4013875.000,3951855.000 4013860.000)
LINESTRING (3950755.000 4013385.000,3950785.000 4013375.000,3950785.000 4013350.000)
LINESTRING (3951855.000 4013525.000,3951910.000 4013505.000)
LINESTRING (3952110.000 4013540.000,3952110.000 4013570.000,3952130.000 4013565.000,3952130.000 4013540.000)
LINESTRING (3950775.000 4012815.000,3950765.000 4012820.000,3950755.000 4012825.000)
LINESTRING (3952760.000 4013615.000,3952755.000 4013615.000,3952715.000 4013615.000,3952685.000 4013620.000,3952645.000 4013630.000,3952620.000 4013635.000,3952610.000 4013640.000,3952605.000 4013640.000,3952595.000 4013645.000,3952585.000 4013650.000,3952555.000 4013670.000,3952545.000 4013675.000,3952525.000 4013685.000,3952430.000 4013745.000,3952410.000 4013755.000,3952350.000 4013790.000,3952320.000 4013805.000,3952295.000 4013815.000,3952275.000 4013820.000,3952215.000 4013835.000,3952160.000 4013855.000,3952130.000 4013860.000,3952095.000 4013870.000,3952045.000 4013880.000,3952040.000 4013885.000,3952025.000 4013885.000)
LINESTRING (3951095.000 4013885.000,3951095.000 4013850.000)
LINESTRING (3951060.000 4013810.000,3951020.000 4013815.000,3950985.000 4013820.000,3950945.000 4013825.000,3950895.000 4013835.000,3950865.000 4013835.000,3950775.000 4013850.000)
LINESTRING (3951100.000 4013680.000,3951145.000 4013685.000,3951160.000 4013680.000)
LINESTRING (3951100.000 4013680.000,3951095.000 4013640.000,3951095.000 4013605.000,3951095.000 4013590.000,3951095.000 4013545.000,3951085.000 4013525.000)
LINESTRING (3951100.000 4013710.000,3951100.000 4013680.000)
LINESTRING (3951095.000 4013520.000,3951105.000 4013540.000,3951125.000 4013575.000,3951130.000 4013590.000,3951145.000 4013630.000,3951155.000 4013660.000,3951160.000 4013680.000,3951165.000 4013690.000,3951170.000 4013705.000,3951185.000 4013770.000,3951190.000 4013780.000,3951205.000 4013830.000)
LINESTRING (3951485.000 4013665.000,3951555.000 4013640.000)
LINESTRING (3951555.000 4013640.000,3951595.000 4013705.000)
LINESTRING (3951630.000 4013485.000,3951590.000 4013495.000)
LINESTRING (3951720.000 4013655.000,3951720.000 4013665.000,3951720.000 4013670.000,3951720.000 4013675.000,3951715.000 4013675.000,3951710.000 4013680.000)
LINESTRING (3951710.000 4013680.000,3951705.000 4013680.000,3951700.000 4013680.000)
LINESTRING (3951520.000 4012910.000,3951500.000 4012915.000,3951480.000 4012920.000)
LINESTRING (3951765.000 4013300.000,3951780.000 4013295.000,3951790.000 4013290.000,3951805.000 4013285.000,3951820.000 4013285.000)
LINESTRING (3952010.000 4013465.000,3951945.000 4013485.000)
LINESTRING (3950875.000 4013360.000,3950830.000 4013370.000,3950820.000 4013370.000)
LINESTRING (3950860.000 4013300.000,3950985.000 4013265.000)
LINESTRING (3951130.000 4013590.000,3951225.000 4013570.000)
LINESTRING (3950785.000 4013560.000,3950790.000 4013600.000,3950805.000 4013675.000)
LINESTRING (3950900.000 4013445.000,3950910.000 4013480.000,3950915.000 4013515.000,3950920.000 4013520.000,3950925.000 4013530.000,3950930.000 4013535.000,3950935.000 4013545.000,3950940.000 4013550.000,3950950.000 4013560.000,3950955.000 4013565.000)
LINESTRING (3950820.000 4013535.000,3950785.000 4013540.000,3950720.000 4013555.000,3950680.000 4013570.000)
LINESTRING (3951435.000 4013695.000,3951440.000 4013715.000,3951455.000 4013765.000,3951470.000 4013805.000,3951480.000 4013855.000)
LINESTRING (3952055.000 4013875.000,3952060.000 4013875.000)
LINESTRING (3952280.000 4013810.000,3952290.000 4013805.000,3952320.000 4013795.000,3952360.000 4013775.000,3952385.000 4013760.000,3952410.000 4013740.000,3952525.000 4013675.000,3952545.000 4013665.000,3952555.000 4013655.000,3952590.000 4013640.000,3952600.000 4013635.000,3952600.000 4013630.000,3952605.000 4013630.000,3952610.000 4013630.000,3952625.000 4013625.000,3952655.000 4013615.000,3952670.000 4013615.000,3952690.000 4013610.000,3952710.000 4013605.000,3952720.000 4013605.000,3952770.000 4013600.000)
LINESTRING (3951995.000 4013880.000,3952010.000 4013880.000,3952020.000 4013880.000,3952045.000 4013875.000)
LINESTRING (3952055.000 4013875.000,3952045.000 4013880.000)
LINESTRING (3952295.000 4013815.000,3952280.000 4013810.000)
LINESTRING (3952045.000 4013875.000,3952055.000 4013875.000)
LINESTRING (3951820.000 4013885.000,3951825.000 4013885.000,3951835.000 4013890.000,3951845.000 4013890.000,3951850.000 4013890.000,3951860.000 4013890.000,3951870.000 4013890.000,3951875.000 4013890.000,3951885.000 4013890.000,3951985.000 4013880.000,3951995.000 4013880.000)
LINESTRING (3952045.000 4013875.000,3952070.000 4013865.000,3952105.000 4013855.000,3952140.000 4013845.000,3952200.000 4013825.000,3952235.000 4013815.000,3952265.000 4013810.000,3952290.000 4013800.000,3952305.000 4013795.000,3952320.000 4013795.000)
LINESTRING (3950810.000 4013315.000,3950820.000 4013370.000)
LINESTRING (3951900.000 4013135.000,3951920.000 4013195.000)
LINESTRING (3950895.000 4012660.000,3950855.000 4012675.000,3950815.000 4012685.000,3950785.000 4012700.000,3950750.000 4012715.000)
LINESTRING (3952265.000 4012785.000,3952260.000 4012755.000,3952255.000 4012720.000)
LINESTRING (3952155.000 4013595.000,3952140.000 4013535.000)
LINESTRING (3951935.000 4013465.000,3952005.000 4013440.000)
LINESTRING (3951945.000 4013485.000,3951940.000 4013485.000)
LINESTRING (3951935.000 4013465.000,3951945.000 4013485.000)
LINESTRING (3951125.000 4013010.000,3951115.000 4013015.000,3951110.000 4013020.000,3951050.000 4013045.000,3950975.000 4013080.000,3950915.000 4013110.000)
LINESTRING (3951405.000 4012920.000,3951395.000 4012885.000,3951345.000 4012755.000,3951335.000 4012735.000,3951310.000 4012670.000)
LINESTRING (3951375.000 4012750.000,3951435.000 4012730.000,3951480.000 4012720.000,3951505.000 4012715.000)
LINESTRING (3951335.000 4012735.000,3951335.000 4012730.000,3951335.000 4012725.000,3951335.000 4012720.000,3951340.000 4012715.000,3951345.000 4012715.000,3951350.000 4012715.000,3951355.000 4012715.000,3951360.000 4012715.000,3951365.000 4012720.000)
LINESTRING (3950775.000 4012815.000,3950775.000 4012810.000,3950770.000 4012800.000)
LINESTRING (3951795.000 4013890.000,3951715.000 4013875.000,3951695.000 4013870.000,3951670.000 4013870.000)
LINESTRING (3950905.000 4013680.000,3950855.000 4013705.000)
LINESTRING (3951165.000 4013690.000,3951260.000 4013665.000)
LINESTRING (3952135.000 4013120.000,3952115.000 4013065.000)
LINESTRING (3950880.000 4012780.000,3950840.000 4012795.000,3950800.000 4012810.000,3950790.000 4012815.000,3950775.000 4012815.000)
LINESTRING (3950740.000 4012810.000,3950760.000 4012805.000,3950770.000 4012800.000,3950785.000 4012795.000)
LINESTRING (3950800.000 4012860.000,3950780.000 4012845.000,3950770.000 4012835.000,3950765.000 4012830.000,3950755.000 4012825.000)
LINESTRING (3950755.000 4012825.000,3950645.000 4012860.000,3950630.000 4012865.000,3950610.000 4012870.000,3950600.000 4012875.000,3950575.000 4012880.000)
LINESTRING (3950770.000 4012790.000,3950790.000 4012785.000)
LINESTRING (3951415.000 4012915.000,3951405.000 4012920.000)
LINESTRING (3950785.000 4012795.000,3950790.000 4012815.000)
LINESTRING (3951580.000 4013290.000,3951555.000 4013300.000)
LINESTRING (3951135.000 4013125.000,3951110.000 4013020.000)
LINESTRING (3950745.000 4013030.000,3950745.000 4013040.000,3950745.000 4013045.000,3950740.000 4013055.000)
LINESTRING (3951715.000 4013700.000,3951730.000 4013695.000,3951510.000 4013125.000,3951495.000 4013130.000,3951715.000 4013700.000)
LINESTRING (3951825.000 4013905.000,3951775.000 4013895.000,3951765.000 4013865.000,3951815.000 4013875.000,3951825.000 4013905.000)
LINESTRING (3951280.000 4011935.000,3951300.000 4011935.000,3951315.000 4012115.000,3951315.000 4012180.000,3951320.000 4012260.000,3951320.000 4012330.000,3951320.000 4012420.000,3951315.000 4012520.000,3951315.000 4012550.000,3951320.000 4012575.000,3951320.000 4012600.000,3951325.000 4012620.000,3951335.000 4012665.000,3951350.000 4012705.000,3951390.000 4012805.000,3951415.000 4012870.000,3951395.000 4012875.000,3951370.000 4012810.000,3951345.000 4012735.000,3951325.000 4012695.000,3951320.000 4012670.000,3951310.000 4012645.000,3951305.000 4012625.000,3951300.000 4012605.000,3951300.000 4012585.000,3951300.000 4012560.000,3951300.000 4012515.000,3951300.000 4012450.000,3951300.000 4012365.000,3951300.000 4012270.000,3951300.000 4012260.000,3951300.000 4012180.000,3951295.000 4012115.000,3951285.000 4012015.000,3951280.000 4011935.000)
LINESTRING (3951235.000 4013490.000,3951280.000 4013480.000)
LINESTRING (3950740.000 4013055.000,3950740.000 4013050.000,3950740.000 4013045.000,3950735.000 4013040.000,3950730.000 4013035.000)
LINESTRING (3950875.000 4013360.000,3950900.000 4013445.000)
LINESTRING (3951550.000 4013030.000,3951575.000 4013025.000,3951585.000 4013020.000,3951640.000 4013010.000)
LINESTRING (3952175.000 4013055.000,3952165.000 4013010.000,3952165.000 4012995.000)
LINESTRING (3950685.000 4013825.000,3950750.000 4013800.000)
LINESTRING (3951705.000 4013360.000,3951725.000 4013355.000,3951730.000 4013355.000,3951730.000 4013360.000,3951745.000 4013395.000,3951745.000 4013400.000,3951745.000 4013405.000)
LINESTRING (3951695.000 4013330.000,3951705.000 4013360.000,3951725.000 4013410.000,3951730.000 4013415.000,3951735.000 4013410.000,3951740.000 4013410.000,3951745.000 4013405.000)
LINESTRING (3952030.000 4013655.000,3952035.000 4013675.000,3952045.000 4013680.000,3952055.000 4013680.000)
LINESTRING (3951805.000 4013740.000,3951825.000 4013740.000,3951830.000 4013745.000,3951835.000 4013750.000,3951840.000 4013755.000)
LINESTRING (3951725.000 4013765.000,3951730.000 4013800.000)
LINESTRING (3951735.000 4012825.000,3951770.000 4012820.000,3951775.000 4012825.000,3951770.000 4012830.000,3951750.000 4012835.000)
LINESTRING (3952275.000 4012745.000,3952325.000 4012740.000)
LINESTRING (3952275.000 4012730.000,3952320.000 4012725.000,3952325.000 4012725.000,3952325.000 4012730.000,3952325.000 4012740.000,3952325.000 4012750.000,3952320.000 4012755.000,3952315.000 4012760.000,3952310.000 4012765.000,3952280.000 4012765.000)
LINESTRING (3952260.000 4012755.000,3952250.000 4012760.000,3952245.000 4012760.000,3952245.000 4012770.000)
LINESTRING (3952145.000 4012845.000,3952150.000 4012810.000)
LINESTRING (3951945.000 4012825.000,3951940.000 4012835.000)
LINESTRING (3952000.000 4012845.000,3952005.000 4012840.000)
LINESTRING (3951940.000 4012835.000,3951945.000 4012835.000,3951950.000 4012840.000,3951985.000 4012845.000,3951990.000 4012845.000,3952000.000 4012845.000,3951995.000 4012835.000,3951990.000 4012830.000,3951950.000 4012825.000,3951945.000 4012825.000)
LINESTRING (3951125.000 4013575.000,3951145.000 4013570.000)
LINESTRING (3951490.000 4013325.000,3951475.000 4013270.000,3951475.000 4013265.000,3951480.000 4013255.000,3951485.000 4013250.000,3951490.000 4013245.000,3951490.000 4013225.000)
LINESTRING (3951515.000 4013315.000,3951520.000 4013345.000)
LINESTRING (3960605.000 4011465.000,3960600.000 4011480.000,3960590.000 4011505.000,3960585.000 4011525.000,3960590.000 4011540.000,3960595.000 4011550.000,3960600.000 4011555.000,3960655.000 4011585.000,3960675.000 4011600.000,3960675.000 4011605.000,3960675.000 4011610.000,3960685.000 4011625.000,3960695.000 4011650.000,3960720.000 4011705.000,3960740.000 4011735.000,3960740.000 4011740.000,3960785.000 4011795.000,3960790.000 4011805.000,3960790.000 4011825.000,3960790.000 4011835.000,3960790.000 4011840.000,3960790.000 4011860.000,3960775.000 4011915.000,3960745.000 4012000.000,3960740.000 4012020.000,3960705.000 4012075.000,3960615.000 4012200.000,3960605.000 4012210.000,3960585.000 4012230.000,3960565.000 4012245.000,3960560.000 4012250.000,3960555.000 4012250.000,3960550.000 4012255.000,3960545.000 4012255.000,3960545.000 4012260.000,3960535.000 4012265.000,3960525.000 4012285.000,3960525.000 4012290.000,3960525.000 4012295.000,3960520.000 4012295.000,3960520.000 4012300.000,3960520.000 4012305.000,3960520.000 4012315.000,3960515.000 4012315.000,3960515.000 4012360.000,3960525.000 4012445.000,3960525.000 4012480.000,3960525.000 4012485.000,3960520.000 4012490.000,3960515.000 4012495.000,3960515.000 4012500.000,3960505.000 4012500.000,3960495.000 4012505.000,3960470.000 4012510.000,3960465.000 4012510.000,3960455.000 4012510.000,3960450.000 4012510.000,3960450.000 4012515.000,3960445.000 4012515.000,3960440.000 4012515.000,3960440.000 4012520.000,3960435.000 4012520.000,3960430.000 4012525.000,3960425.000 4012535.000,3960430.000 4012540.000,3960435.000 4012550.000,3960440.000 4012555.000,3960500.000 4012570.000,3960520.000 4012590.000,3960530.000 4012605.000,3960540.000 4012625.000,3960560.000 4012685.000,3960560.000 4012695.000,3960550.000 4012705.000,3960545.000 4012705.000,3960530.000 4012705.000,3960525.000 4012705.000,3960520.000 4012705.000,3960520.000 4012700.000,3960515.000 4012700.000,3960510.000 4012700.000,3960495.000 4012685.000,3960485.000 4012680.000,3960480.000 4012675.000,3960440.000 4012660.000,3960435.000 4012660.000,3960400.000 4012650.000,3960380.000 4012650.000,3960370.000 4012655.000,3960365.000 4012660.000,3960355.000 4012670.000,3960350.000 4012675.000,3960350.000 4012685.000,3960350.000 4012690.000,3960350.000 4012695.000,3960355.000 4012695.000,3960355.000 4012700.000,3960385.000 4012760.000,3960405.000 4012800.000,3960355.000 4012825.000,3960345.000 4012825.000,3960305.000 4012850.000,3960300.000 4012850.000,3960300.000 4012855.000,3960255.000 4012875.000,3960250.000 4012875.000,3960245.000 4012875.000,3960230.000 4012880.000,3960205.000 4012880.000,3960155.000 4012875.000,3960145.000 4012870.000,3960140.000 4012870.000,3960110.000 4012850.000,3960085.000 4012830.000,3960080.000 4012830.000,3960080.000 4012835.000,3960075.000 4012835.000,3960075.000 4012830.000,3960070.000 4012830.000,3960070.000 4012825.000,3960055.000 4012830.000,3960040.000 4012830.000,3960035.000 4012835.000,3960030.000 4012840.000,3960025.000 4012840.000,3960025.000 4012850.000,3960025.000 4012855.000,3960025.000 4012865.000,3960025.000 4012870.000,3960050.000 4012915.000,3960080.000 4012960.000,3960090.000 4012970.000,3960090.000 4012975.000,3960095.000 4012975.000,3960095.000 4012980.000,3960100.000 4012980.000,3960105.000 4012980.000,3960110.000 4012985.000,3960130.000 4012990.000,3960135.000 4012990.000,3960140.000 4012990.000,3960145.000 4012995.000,3960150.000 4012995.000,3960155.000 4012995.000,3960160.000 4013000.000,3960160.000 4013005.000,3960165.000 4013005.000,3960165.000 4013015.000,3960160.000 4013015.000,3960155.000 4013025.000,3960150.000 4013025.000,3960135.000 4013035.000,3960130.000 4013040.000,3960125.000 4013040.000,3960120.000 4013040.000,3960115.000 4013045.000,3960115.000 4013050.000,3960110.000 4013050.000,3960110.000 4013055.000,3960105.000 4013060.000,3960105.000 4013065.000,3960095.000 4013075.000,3960095.000 4013080.000,3960090.000 4013090.000,3960085.000 4013090.000,3960080.000 4013095.000,3960075.000 4013100.000,3960075.000 4013105.000,3960070.000 4013105.000,3960065.000 4013110.000,3960050.000 4013115.000,3960045.000 4013115.000,3960040.000 4013115.000,3960035.000 4013115.000,3960030.000 4013120.000,3959965.000 4013125.000,3959960.000 4013125.000,3959955.000 4013125.000,3959950.000 4013125.000,3959950.000 4013130.000,3959945.000 4013130.000,3959920.000 4013140.000,3959905.000 4013150.000,3959900.000 4013155.000,3959870.000 4013185.000,3959865.000 4013190.000,3959860.000 4013195.000,3959855.000 4013200.000,3959850.000 4013200.000,3959850.000 4013205.000,3959845.000 4013205.000,3959840.000 4013205.000,3959835.000 4013210.000,3959820.000 4013210.000,3959815.000 4013205.000,3959810.000 4013205.000,3959805.000 4013205.000,3959800.000 4013200.000,3959790.000 4013195.000,3959785.000 4013195.000,3959785.000 4013190.000,3959780.000 4013190.000,3959780.000 4013185.000,3959775.000 4013185.000,3959775.000 4013180.000,3959770.000 4013175.000,3959770.000 4013170.000,3959755.000 4013130.000,3959750.000 4013125.000,3959750.000 4013115.000,3959750.000 4013110.000,3959745.000 4013110.000,3959745.000 4013105.000,3959740.000 4013105.000,3959740.000 4013100.000,3959735.000 4013100.000,3959735.000 4013095.000,3959730.000 4013095.000,3959725.000 4013095.000,3959725.000 4013090.000,3959715.000 4013090.000,3959715.000 4013095.000,3959710.000 4013095.000,3959705.000 4013095.000,3959700.000 4013100.000,3959700.000 4013105.000,3959695.000 4013105.000,3959695.000 4013110.000,3959695.000 4013115.000,3959695.000 4013135.000,3959695.000 4013140.000,3959720.000 4013235.000,3959725.000 4013255.000,3959750.000 4013340.000,3959755.000 4013375.000,3959755.000 4013380.000,3959755.000 4013390.000,3959755.000 4013400.000,3959755.000 4013405.000,3959750.000 4013405.000,3959750.000 4013410.000,3959750.000 4013415.000,3959745.000 4013420.000,3959740.000 4013425.000,3959735.000 4013430.000,3959730.000 4013430.000,3959670.000 4013465.000,3959660.000 4013475.000,3959650.000 4013490.000,3959650.000 4013495.000,3959645.000 4013500.000,3959640.000 4013515.000,3959635.000 4013530.000,3959635.000 4013540.000,3959670.000 4013585.000,3959750.000 4013660.000,3959740.000 4013680.000,3959720.000 4013705.000,3959720.000 4013710.000,3959605.000 4013850.000,3959565.000 4013890.000,3959465.000 4013975.000,3959380.000 4014040.000,3959375.000 4014050.000,3959360.000 4014060.000,3959300.000 4014105.000,3959285.000 4014120.000,3959270.000 4014125.000,3959210.000 4014145.000,3959205.000 4014145.000,3959130.000 4014160.000,3959125.000 4014160.000,3959045.000 4014175.000,3959010.000 4014190.000,3959000.000 4014195.000,3958965.000 4014210.000,3958955.000 4014215.000,3958905.000 4014250.000,3958890.000 4014260.000,3958880.000 4014275.000,3958875.000 4014285.000,3958875.000 4014290.000,3958870.000 4014290.000,3958870.000 4014295.000,3958845.000 4014310.000,3958805.000 4014345.000,3958785.000 4014330.000,3958785.000 4014325.000,3958785.000 4014320.000,3958780.000 4014320.000,3958780.000 4014315.000,3958785.000 4014310.000,3958760.000 4014260.000,3958755.000 4014250.000,3958755.000 4014240.000,3958765.000 4014220.000,3958765.000 4014210.000,3958765.000 4014200.000,3958765.000 4014190.000,3958720.000 4014110.000,3958680.000 4014035.000,3958645.000 4013945.000,3958550.000 4013725.000,3958425.000 4013735.000,3958420.000 4013780.000,3958410.000 4013925.000,3958410.000 4013955.000,3958395.000 4014140.000,3958400.000 4014180.000,3958400.000 4014215.000,3958390.000 4014315.000,3958385.000 4014330.000,3958375.000 4014345.000,3958365.000 4014355.000,3958360.000 4014360.000,3958335.000 4014365.000,3958280.000 4014385.000,3958275.000 4014380.000,3958145.000 4014290.000,3958140.000 4014285.000,3957845.000 4014075.000,3957830.000 4014065.000,3957815.000 4014055.000,3957760.000 4014015.000,3957730.000 4013990.000,3957725.000 4013990.000,3957630.000 4013925.000,3957605.000 4013905.000,3957585.000 4013890.000,3957530.000 4013890.000,3957505.000 4013885.000,3957500.000 4013880.000,3957425.000 4013885.000,3957330.000 4013895.000,3957245.000 4013915.000,3957195.000 4013925.000,3957180.000 4014020.000,3957090.000 4014005.000,3957085.000 4014005.000,3957080.000 4014005.000,3957070.000 4014005.000,3957065.000 4014005.000,3957060.000 4013990.000,3957055.000 4013980.000,3956975.000 4013860.000,3956895.000 4013725.000,3956770.000 4013795.000,3956720.000 4013810.000,3956655.000 4013850.000,3956585.000 4013870.000,3956565.000 4013880.000,3956560.000 4013880.000,3956450.000 4013915.000,3956265.000 4013955.000,3956260.000 4013955.000,3956260.000 4013970.000,3956260.000 4013975.000,3956250.000 4013990.000,3956250.000 4013995.000,3956250.000 4014005.000,3956255.000 4014035.000,3956190.000 4014040.000,3956150.000 4014050.000,3956140.000 4014050.000,3956130.000 4014055.000,3956105.000 4014065.000,3956060.000 4014075.000,3955995.000 4014075.000,3955990.000 4014075.000,3955985.000 4014075.000,3955955.000 4014070.000,3955940.000 4014065.000,3955930.000 4014065.000,3955920.000 4014060.000,3955865.000 4014030.000,3955850.000 4014020.000,3955845.000 4014015.000,3955750.000 4014045.000,3955740.000 4014045.000,3955725.000 4014050.000,3955650.000 4014065.000,3955660.000 4014095.000,3955690.000 4014170.000,3955725.000 4014240.000,3955735.000 4014250.000,3955740.000 4014250.000,3955750.000 4014250.000,3955755.000 4014250.000,3955760.000 4014245.000,3955760.000 4014240.000,3955760.000 4014235.000,3955760.000 4014230.000,3955755.000 4014225.000,3955755.000 4014220.000,3955750.000 4014220.000,3955735.000 4014215.000,3955725.000 4014210.000,3955720.000 4014205.000,3955710.000 4014195.000,3955710.000 4014185.000,3955705.000 4014185.000,3955705.000 4014175.000,3955705.000 4014160.000,3955695.000 4014120.000,3955695.000 4014115.000,3955690.000 4014110.000,3955685.000 4014100.000,3955660.000 4014080.000,3955465.000 4014105.000,3955410.000 4014105.000,3955270.000 4014125.000,3955220.000 4014125.000,3955185.000 4014105.000,3955125.000 4014035.000,3955090.000 4014010.000,3955045.000 4013990.000,3954950.000 4013960.000,3954830.000 4013900.000,3954700.000 4013835.000,3954625.000 4013790.000,3954580.000 4013770.000,3954550.000 4013760.000,3954415.000 4013755.000,3954340.000 4013750.000,3954290.000 4013740.000,3954200.000 4013700.000,3954195.000 4013700.000,3954190.000 4013700.000,3954185.000 4013695.000,3954160.000 4013680.000,3954120.000 4013655.000,3954115.000 4013655.000,3954105.000 4013650.000,3954065.000 4013640.000,3954025.000 4013630.000,3954020.000 4013630.000,3953965.000 4013625.000,3953690.000 4013605.000,3953550.000 4013605.000,3953535.000 4013605.000,3953460.000 4013605.000,3953385.000 4013605.000,3953385.000 4013610.000,3953340.000 4013610.000,3953315.000 4013605.000,3953310.000 4013605.000,3953220.000 4013590.000,3953215.000 4013590.000,3953210.000 4013585.000,3953185.000 4013585.000,3953180.000 4013590.000,3953170.000 4013590.000,3953120.000 4013595.000,3953115.000 4013600.000,3953110.000 4013600.000,3953090.000 4013605.000,3952820.000 4013605.000,3952735.000 4013610.000,3952635.000 4013630.000,3952610.000 4013635.000,3952595.000 4013645.000,3952585.000 4013650.000,3952525.000 4013680.000,3952520.000 4013685.000,3952475.000 4013710.000,3952355.000 4013780.000,3952275.000 4013810.000,3952255.000 4013815.000,3952215.000 4013830.000,3952195.000 4013835.000,3952190.000 4013835.000,3952145.000 4013850.000,3952140.000 4013850.000,3952100.000 4013860.000,3952075.000 4013870.000,3952070.000 4013875.000,3952050.000 4013885.000,3952025.000 4013890.000,3951955.000 4013895.000,3951885.000 4013895.000,3951825.000 4013890.000,3951815.000 4013890.000,3951795.000 4013890.000,3951770.000 4013885.000,3951720.000 4013865.000,3951715.000 4013865.000,3951685.000 4013860.000,3951670.000 4013860.000,3951655.000 4013860.000,3951630.000 4013870.000,3951585.000 4013890.000,3951420.000 4013950.000,3951315.000 4013975.000,3951135.000 4014030.000,3951055.000 4014045.000,3950980.000 4014050.000,3950880.000 4014070.000,3950860.000 4014070.000,3950635.000 4014110.000,3950525.000 4014135.000,3950485.000 4014135.000,3950440.000 4014140.000,3950420.000 4014125.000,3950410.000 4014115.000,3950405.000 4014105.000,3950385.000 4014095.000,3950375.000 4014090.000,3950305.000 4014090.000,3950155.000 4014065.000,3950145.000 4014065.000,3950130.000 4014070.000,3950125.000 4014075.000,3950115.000 4014090.000,3950110.000 4014095.000,3950100.000 4014130.000,3950100.000 4014140.000,3950050.000 4014220.000,3950020.000 4014285.000,3950015.000 4014295.000,3950015.000 4014355.000,3949990.000 4014540.000,3949990.000 4014565.000,3950160.000 4014585.000)
LINESTRING (3950210.000 4014595.000,3950220.000 4014595.000,3950380.000 4014600.000,3950475.000 4014610.000,3950475.000 4014515.000,3950475.000 4014505.000,3950470.000 4014490.000,3950465.000 4014490.000,3950465.000 4014485.000,3950455.000 4014475.000,3950400.000 4014425.000,3950395.000 4014425.000,3950330.000 4014365.000,3950310.000 4014355.000,3950240.000 4014290.000,3950130.000 4014195.000,3950110.000 4014165.000,3950080.000 4014110.000,3950090.000 4014100.000,3950120.000 4014065.000,3950135.000 4014055.000,3950140.000 4014055.000,3950150.000 4014055.000,3950160.000 4014060.000,3950210.000 4014065.000,3950225.000 4014065.000,3950365.000 4014080.000,3950410.000 4014080.000,3950520.000 4014055.000,3950590.000 4014045.000,3950715.000 4014020.000,3950740.000 4014015.000,3950910.000 4013980.000,3950965.000 4013965.000,3951105.000 4013935.000,3951475.000 4013845.000,3951480.000 4013845.000,3951520.000 4013835.000,3951540.000 4013835.000,3951580.000 4013840.000,3951670.000 4013845.000,3951715.000 4013855.000,3951765.000 4013865.000,3951780.000 4013870.000,3951860.000 4013890.000,3951870.000 4013890.000,3951880.000 4013890.000,3952020.000 4013880.000,3952040.000 4013870.000,3952045.000 4013870.000,3952050.000 4013870.000,3952090.000 4013855.000,3952110.000 4013850.000,3952255.000 4013810.000,3952290.000 4013795.000,3952325.000 4013780.000,3952350.000 4013770.000,3952455.000 4013715.000,3952455.000 4013710.000,3952480.000 4013700.000,3952535.000 4013665.000,3952560.000 4013645.000,3952605.000 4013625.000,3952705.000 4013605.000,3952755.000 4013595.000,3952805.000 4013595.000,3952810.000 4013595.000,3952840.000 4013590.000,3952850.000 4013595.000,3952855.000 4013595.000,3952865.000 4013595.000,3952870.000 4013595.000,3952875.000 4013585.000,3952875.000 4013580.000,3952880.000 4013565.000,3952885.000 4013560.000,3952975.000 4013540.000,3953005.000 4013540.000,3953050.000 4013540.000,3953135.000 4013565.000,3953150.000 4013575.000,3953175.000 4013570.000,3953185.000 4013570.000,3953245.000 4013575.000,3953310.000 4013590.000,3953345.000 4013595.000,3953380.000 4013595.000,3953445.000 4013595.000,3953675.000 4013595.000,3953985.000 4013620.000,3954055.000 4013630.000,3954100.000 4013640.000,3954135.000 4013655.000,3954165.000 4013670.000,3954220.000 4013700.000,3954255.000 4013710.000,3954295.000 4013725.000,3954340.000 4013735.000,3954380.000 4013735.000,3954400.000 4013740.000,3954435.000 4013745.000,3954500.000 4013745.000,3954555.000 4013750.000,3954580.000 4013755.000,3954630.000 4013780.000,3954685.000 4013810.000,3954725.000 4013830.000,3954800.000 4013875.000,3954905.000 4013930.000,3954945.000 4013945.000,3955055.000 4013980.000,3955090.000 4013995.000,3955120.000 4014015.000,3955125.000 4014015.000,3955150.000 4014040.000,3955195.000 4014095.000,3955215.000 4014105.000,3955220.000 4014105.000,3955230.000 4014110.000,3955275.000 4014105.000,3955290.000 4014105.000,3955465.000 4014090.000,3955480.000 4014090.000,3955545.000 4014085.000,3955575.000 4014080.000,3955580.000 4014080.000,3955585.000 4014080.000,3955595.000 4014080.000,3955600.000 4014080.000,3955630.000 4014075.000,3955650.000 4014070.000,3955785.000 4014040.000,3955810.000 4014035.000,3955885.000 4014015.000,3955900.000 4014010.000,3956065.000 4013975.000,3956075.000 4013970.000,3956180.000 4013945.000,3956365.000 4013900.000,3956385.000 4013895.000,3956450.000 4013880.000,3956455.000 4013880.000,3956515.000 4013865.000,3956625.000 4013835.000,3956680.000 4013810.000,3956715.000 4013795.000,3956750.000 4013780.000,3956780.000 4013765.000,3956785.000 4013765.000,3956885.000 4013710.000,3956890.000 4013715.000,3956890.000 4013720.000,3956895.000 4013725.000,3956975.000 4013860.000,3957055.000 4013980.000,3957060.000 4013990.000,3957065.000 4014005.000,3957070.000 4014005.000,3957080.000 4014005.000,3957085.000 4014005.000,3957090.000 4014005.000,3957180.000 4014020.000,3957195.000 4013925.000,3957245.000 4013915.000,3957330.000 4013895.000,3957375.000 4013890.000,3957380.000 4013890.000,3957425.000 4013885.000,3957500.000 4013880.000,3957505.000 4013885.000,3957530.000 4013890.000,3957585.000 4013890.000,3957605.000 4013905.000,3957630.000 4013925.000,3957725.000 4013990.000,3957730.000 4013990.000,3957760.000 4014015.000,3957815.000 4014055.000,3957830.000 4014065.000,3957850.000 4014020.000,3957860.000 4014000.000,3957870.000 4013980.000,3957875.000 4013965.000,3957975.000 4014035.000,3958140.000 4014150.000,3958370.000 4014320.000,3958375.000 4014310.000,3958380.000 4014300.000,3958380.000 4014295.000,3958385.000 4014240.000,3958385.000 4014210.000,3958390.000 4014160.000,3958395.000 4014140.000,3958405.000 4014035.000,3958410.000 4013955.000,3958410.000 4013925.000,3958420.000 4013780.000,3958425.000 4013735.000,3958550.000 4013725.000,3958645.000 4013945.000,3958680.000 4014035.000,3958720.000 4014110.000,3958765.000 4014190.000,3958790.000 4014225.000,3958820.000 4014285.000,3958855.000 4014270.000,3958860.000 4014270.000,3958875.000 4014265.000,3958905.000 4014250.000,3958955.000 4014215.000,3958965.000 4014210.000,3959000.000 4014195.000,3959010.000 4014190.000,3959020.000 4014185.000,3959045.000 4014175.000,3959125.000 4014160.000,3959130.000 4014160.000,3959205.000 4014145.000,3959210.000 4014145.000,3959270.000 4014125.000,3959275.000 4014120.000,3959285.000 4014120.000,3959300.000 4014105.000,3959360.000 4014060.000,3959375.000 4014050.000,3959380.000 4014040.000,3959465.000 4013975.000,3959565.000 4013890.000,3959605.000 4013850.000,3959720.000 4013710.000,3959720.000 4013705.000,3959740.000 4013680.000,3959750.000 4013660.000,3959670.000 4013585.000,3959635.000 4013540.000,3959635.000 4013530.000,3959640.000 4013515.000,3959645.000 4013500.000,3959650.000 4013495.000,3959650.000 4013490.000,3959660.000 4013475.000,3959670.000 4013465.000,3959700.000 4013450.000,3959730.000 4013430.000,3959735.000 4013430.000,3959740.000 4013425.000,3959745.000 4013420.000,3959750.000 4013415.000,3959750.000 4013410.000,3959750.000 4013405.000,3959755.000 4013405.000,3959755.000 4013400.000,3959755.000 4013390.000,3959755.000 4013385.000,3959755.000 4013380.000,3959755.000 4013375.000,3959750.000 4013340.000,3959725.000 4013255.000,3959720.000 4013235.000,3959700.000 4013170.000,3959695.000 4013140.000,3959695.000 4013135.000,3959695.000 4013115.000,3959695.000 4013110.000,3959695.000 4013105.000,3959700.000 4013105.000,3959700.000 4013100.000,3959705.000 4013095.000,3959710.000 4013095.000,3959715.000 4013095.000,3959715.000 4013090.000,3959725.000 4013090.000,3959725.000 4013095.000,3959730.000 4013095.000,3959735.000 4013095.000,3959735.000 4013100.000,3959740.000 4013100.000,3959740.000 4013105.000,3959745.000 4013105.000,3959745.000 4013110.000,3959750.000 4013110.000,3959750.000 4013115.000,3959750.000 4013125.000,3959755.000 4013130.000,3959770.000 4013170.000,3959770.000 4013175.000,3959775.000 4013180.000,3959775.000 4013185.000,3959780.000 4013185.000,3959780.000 4013190.000,3959785.000 4013190.000,3959785.000 4013195.000,3959790.000 4013195.000,3959800.000 4013200.000,3959805.000 4013205.000,3959810.000 4013205.000,3959815.000 4013205.000,3959820.000 4013210.000,3959835.000 4013210.000,3959840.000 4013205.000,3959845.000 4013205.000,3959850.000 4013205.000,3959850.000 4013200.000,3959855.000 4013200.000,3959860.000 4013195.000,3959865.000 4013190.000,3959870.000 4013185.000,3959900.000 4013155.000,3959905.000 4013150.000,3959920.000 4013140.000,3959925.000 4013135.000,3959930.000 4013135.000,3959945.000 4013130.000,3959950.000 4013130.000,3959950.000 4013125.000,3959955.000 4013125.000,3959960.000 4013125.000,3959965.000 4013125.000,3960015.000 4013120.000,3960020.000 4013120.000,3960030.000 4013120.000,3960035.000 4013115.000,3960040.000 4013115.000,3960045.000 4013115.000,3960050.000 4013115.000,3960065.000 4013110.000,3960070.000 4013105.000,3960075.000 4013105.000,3960075.000 4013100.000,3960080.000 4013095.000,3960085.000 4013090.000,3960090.000 4013090.000,3960095.000 4013080.000,3960095.000 4013075.000,3960105.000 4013065.000,3960105.000 4013060.000,3960110.000 4013055.000,3960110.000 4013050.000,3960115.000 4013050.000,3960115.000 4013045.000,3960120.000 4013040.000,3960125.000 4013040.000,3960130.000 4013040.000,3960135.000 4013035.000,3960145.000 4013030.000,3960150.000 4013025.000,3960155.000 4013025.000,3960160.000 4013015.000,3960165.000 4013015.000,3960165.000 4013005.000,3960160.000 4013005.000,3960160.000 4013000.000,3960155.000 4012995.000,3960150.000 4012995.000,3960145.000 4012995.000,3960140.000 4012990.000,3960135.000 4012990.000,3960130.000 4012990.000,3960115.000 4012985.000,3960110.000 4012985.000,3960105.000 4012980.000,3960100.000 4012980.000,3960095.000 4012980.000,3960095.000 4012975.000,3960090.000 4012975.000,3960090.000 4012970.000,3960080.000 4012960.000,3960050.000 4012915.000,3960025.000 4012875.000,3960025.000 4012870.000,3960025.000 4012865.000,3960025.000 4012855.000,3960025.000 4012850.000,3960025.000 4012840.000,3960030.000 4012840.000,3960035.000 4012835.000,3960040.000 4012830.000,3960055.000 4012830.000,3960070.000 4012825.000,3960070.000 4012820.000,3960075.000 4012820.000,3960080.000 4012820.000,3960085.000 4012820.000,3960085.000 4012830.000,3960110.000 4012850.000,3960140.000 4012870.000,3960145.000 4012870.000,3960155.000 4012875.000,3960160.000 4012875.000,3960205.000 4012880.000,3960230.000 4012880.000,3960245.000 4012875.000,3960250.000 4012875.000,3960255.000 4012875.000,3960300.000 4012855.000,3960300.000 4012850.000,3960305.000 4012850.000,3960345.000 4012825.000,3960355.000 4012825.000,3960405.000 4012800.000,3960385.000 4012760.000,3960355.000 4012700.000,3960355.000 4012695.000,3960350.000 4012695.000,3960350.000 4012690.000,3960350.000 4012685.000,3960350.000 4012675.000,3960355.000 4012670.000,3960365.000 4012660.000,3960370.000 4012655.000,3960380.000 4012650.000,3960400.000 4012650.000,3960435.000 4012660.000,3960440.000 4012660.000,3960480.000 4012675.000,3960485.000 4012680.000,3960495.000 4012685.000,3960500.000 4012690.000,3960510.000 4012700.000,3960515.000 4012700.000,3960520.000 4012700.000,3960520.000 4012705.000,3960525.000 4012705.000,3960530.000 4012705.000,3960545.000 4012705.000,3960550.000 4012705.000,3960560.000 4012695.000,3960560.000 4012685.000,3960540.000 4012625.000,3960530.000 4012605.000,3960520.000 4012590.000,3960500.000 4012570.000,3960440.000 4012555.000,3960435.000 4012550.000,3960430.000 4012540.000,3960425.000 4012535.000,3960430.000 4012525.000,3960435.000 4012520.000,3960440.000 4012520.000,3960440.000 4012515.000,3960445.000 4012515.000,3960450.000 4012515.000,3960450.000 4012510.000,3960455.000 4012510.000,3960465.000 4012510.000,3960470.000 4012510.000,3960495.000 4012505.000,3960505.000 4012500.000,3960515.000 4012500.000,3960515.000 4012495.000,3960520.000 4012490.000,3960525.000 4012485.000,3960525.000 4012480.000,3960525.000 4012445.000,3960515.000 4012360.000,3960515.000 4012315.000,3960520.000 4012315.000,3960520.000 4012305.000,3960520.000 4012300.000,3960520.000 4012295.000,3960525.000 4012295.000,3960525.000 4012290.000,3960525.000 4012285.000,3960535.000 4012265.000,3960545.000 4012260.000,3960545.000 4012255.000,3960550.000 4012255.000,3960555.000 4012250.000,3960560.000 4012250.000,3960565.000 4012245.000,3960585.000 4012230.000,3960605.000 4012210.000,3960615.000 4012200.000,3960705.000 4012075.000,3960740.000 4012020.000,3960745.000 4012000.000,3960775.000 4011915.000,3960790.000 4011860.000,3960790.000 4011840.000,3960790.000 4011835.000,3960790.000 4011825.000,3960790.000 4011805.000,3960785.000 4011795.000,3960740.000 4011740.000,3960740.000 4011735.000,3960720.000 4011705.000,3960695.000 4011650.000,3960685.000 4011625.000,3960675.000 4011610.000,3960675.000 4011605.000,3960675.000 4011600.000,3960655.000 4011585.000,3960600.000 4011555.000,3960595.000 4011550.000,3960590.000 4011540.000,3960590.000 4011535.000,3960585.000 4011525.000,3960590.000 4011505.000)
LINESTRING (3951305.000 4012625.000,3951305.000 4012620.000)
LINESTRING (3952275.000 4012745.000,3952260.000 4012755.000)
LINESTRING (3950760.000 4013850.000,3950775.000 4013850.000)
LINESTRING (3950790.000 4012785.000,3950795.000 4012790.000)
