LINESTRING (3952265.000 4012785.000,3952275.000 4012805.000)
LINESTRING (3951530.000 4013165.000,3951570.000 4013170.000)
LINESTRING (3952150.000 4013810.000,3952120.000 4013815.000)
LINESTRING (3952270.000 4013555.000,3952290.000 4013550.000)
LINESTRING (3951225.000 4013900.000,3951240.000 4013880.000)
LINESTRING (3952280.000 4012765.000,3952290.000 4012755.000)
LINESTRING (3952145.000 4012635.000,3952190.000 4012665.000)
LINESTRING (3951605.000 4013725.000,3951580.000 4013735.000)
LINESTRING (3951730.000 4013800.000,3951725.000 4013795.000)
LINESTRING (3950755.000 4013855.000,3950745.000 4013875.000)
LINESTRING (3951160.000 4013840.000,3951180.000 4013865.000)
LINESTRING (3951255.000 4013910.000,3951300.000 4013870.000)
LINESTRING (3951145.000 4013570.000,3951150.000 4013565.000)
LINESTRING (3952020.000 4012920.000,3952005.000 4012935.000)
LINESTRING (3951880.000 4013060.000,3951895.000 4013045.000)
LINESTRING (3951850.000 4013130.000,3951855.000 4013120.000)
LINESTRING (3951835.000 4013360.000,3951820.000 4013385.000)
LINESTRING (3952055.000 4013655.000,3952075.000 4013660.000)
LINESTRING (3952085.000 4013610.000,3952085.000 4013630.000)
LINESTRING (3952050.000 4013640.000,3952065.000 4013640.000)
LINESTRING (3950775.000 4013850.000,3950785.000 4013835.000)
LINESTRING (3951095.000 4013810.000,3951115.000 4013810.000)
LINESTRING (3951095.000 4013810.000,3951115.000 4013825.000)
LINESTRING (3950735.000 4013120.000,3950760.000 4013135.000)
LINESTRING (3950970.000 4013435.000,3950955.000 4013390.000)
LINESTRING (3951095.000 4012935.000,3951140.000 4012925.000)
LINESTRING (3951495.000 4012840.000,3951495.000 4012785.000)
LINESTRING (3952115.000 4013890.000,3952135.000 4013885.000)
LINESTRING (3951240.000 4013255.000,3951265.000 4013240.000)
LINESTRING (3951020.000 4013345.000,3951055.000 4013360.000)
LINESTRING (3951145.000 4013280.000,3951190.000 4013275.000)
LINESTRING (3951315.000 4013140.000,3951345.000 4013125.000)
LINESTRING (3952245.000 4012770.000,3952245.000 4012765.000)
LINESTRING (3951925.000 4013205.000,3951910.000 4013225.000)
LINESTRING (3952160.000 4013615.000,3952180.000 4013605.000)
LINESTRING (3952110.000 4013570.000,3952115.000 4013560.000)
LINESTRING (3952215.000 4013475.000,3952190.000 4013460.000)
LINESTRING (3950745.000 4013330.000,3950725.000 4013340.000)
LINESTRING (3951655.000 4012775.000,3951650.000 4012805.000)
LINESTRING (3951345.000 4012910.000,3951345.000 4012930.000)
LINESTRING (3951415.000 4012945.000,3951385.000 4012945.000)
LINESTRING (3950805.000 4012870.000,3950865.000 4012860.000)
LINESTRING (3951945.000 4013120.000,3951945.000 4013135.000)
LINESTRING (3951545.000 4013110.000,3951530.000 4013095.000)
LINESTRING (3952200.000 4013715.000,3952220.000 4013720.000)
LINESTRING (3952200.000 4013715.000,3952210.000 4013725.000)
LINESTRING (3952180.000 4013750.000,3952200.000 4013745.000)
LINESTRING (3952180.000 4013750.000,3952195.000 4013755.000)
LINESTRING (3952225.000 4013670.000,3952235.000 4013690.000)
LINESTRING (3952265.000 4013705.000,3952270.000 4013685.000)
LINESTRING (3952265.000 4013705.000,3952280.000 4013690.000)
LINESTRING (3952265.000 4013705.000,3952290.000 4013680.000)
LINESTRING (3950935.000 4013705.000,3950925.000 4013690.000)
LINESTRING (3952035.000 4013675.000,3952030.000 4013675.000)
LINESTRING (3951830.000 4013745.000,3951830.000 4013750.000)
LINESTRING (3951585.000 4012895.000,3951610.000 4012905.000)
LINESTRING (3952270.000 4013555.000,3952285.000 4013565.000)
LINESTRING (3952270.000 4013555.000,3952290.000 4013570.000)
LINESTRING (3952270.000 4013555.000,3952290.000 4013575.000)
LINESTRING (3952265.000 4013600.000,3952290.000 4013580.000)
LINESTRING (3952265.000 4013600.000,3952290.000 4013585.000)
LINESTRING (3952270.000 4013555.000,3952255.000 4013540.000)
LINESTRING (3952215.000 4013520.000,3952230.000 4013540.000)
LINESTRING (3952270.000 4013555.000,3952250.000 4013565.000)
LINESTRING (3952265.000 4013600.000,3952250.000 4013585.000)
LINESTRING (3952265.000 4013600.000,3952250.000 4013600.000)
LINESTRING (3952265.000 4013600.000,3952235.000 4013610.000)
LINESTRING (3952245.000 4013640.000,3952235.000 4013625.000)
LINESTRING (3952215.000 4013635.000,3952225.000 4013645.000)
LINESTRING (3952225.000 4013670.000,3952220.000 4013655.000)
LINESTRING (3952225.000 4013670.000,3952215.000 4013665.000)
LINESTRING (3952205.000 4013705.000,3952200.000 4013685.000)
LINESTRING (3952205.000 4013705.000,3952195.000 4013690.000)
LINESTRING (3952200.000 4013715.000,3952190.000 4013705.000)
LINESTRING (3952150.000 4013810.000,3952160.000 4013820.000)
LINESTRING (3952160.000 4013790.000,3952175.000 4013790.000)
LINESTRING (3952180.000 4013750.000,3952190.000 4013770.000)
LINESTRING (3952155.000 4013845.000,3952160.000 4013830.000)
LINESTRING (3951295.000 4012715.000,3951250.000 4012715.000)
LINESTRING (3951030.000 4012780.000,3951060.000 4012780.000)
LINESTRING (3951665.000 4013070.000,3951655.000 4013085.000)
LINESTRING (3952145.000 4012845.000,3952140.000 4012830.000)
