LINESTRING (3950570.000 4012865.000,3950620.000 4012855.000,3950710.000 4012820.000,3950740.000 4012810.000,3950760.000 4012805.000,3950770.000 4012800.000,3950785.000 4012795.000,3950795.000 4012790.000,3950930.000 4012745.000,3951055.000 4012695.000,3951125.000 4012670.000,3951185.000 4012650.000,3951240.000 4012635.000,3951250.000 4012630.000,3950570.000 4012865.000,3950620.000 4012855.000,3950710.000 4012820.000,3950740.000 4012810.000,3950760.000 4012805.000,3950770.000 4012800.000,3950785.000 4012795.000,3950795.000 4012790.000,3950930.000 4012745.000,3951055.000 4012695.000,3951125.000 4012670.000,3951185.000 4012650.000,3951240.000 4012635.000,3951250.000 4012630.000,3951255.000 4012645.000,3951245.000 4012650.000,3951135.000 4012685.000,3951015.000 4012730.000,3950975.000 4012745.000,3950935.000 4012760.000,3950880.000 4012780.000,3950840.000 4012795.000,3950800.000 4012810.000,3950790.000 4012815.000,3950775.000 4012815.000,3950765.000 4012820.000,3950755.000 4012825.000,3950645.000 4012860.000,3950630.000 4012865.000,3950610.000 4012870.000,3950600.000 4012875.000,3950575.000 4012880.000,3951255.000 4012645.000,3951245.000 4012650.000,3951135.000 4012685.000,3951015.000 4012730.000,3950975.000 4012745.000,3950935.000 4012760.000,3950880.000 4012780.000,3950840.000 4012795.000,3950800.000 4012810.000,3950790.000 4012815.000,3950775.000 4012815.000,3950765.000 4012820.000,3950755.000 4012825.000,3950645.000 4012860.000,3950630.000 4012865.000,3950610.000 4012870.000,3950600.000 4012875.000,3950575.000 4012880.000)
