LINESTRING (3950570.000 4012865.000,3950620.000 4012855.000,3950710.000 4012820.000,3950740.000 4012810.000,3950760.000 4012805.000,3950770.000 4012800.000,3950785.000 4012795.000,3950795.000 4012790.000,3950930.000 4012745.000,3951055.000 4012695.000,3951125.000 4012670.000,3951185.000 4012650.000,3951240.000 4012635.000,3951250.000 4012630.000,3951995.000 4013880.000,3952010.000 4013880.000,3952020.000 4013880.000,3952045.000 4013875.000,3952055.000 4013875.000,3952060.000 4013875.000,3952155.000 4013845.000,3952270.000 4013815.000,3952280.000 4013810.000,3952290.000 4013805.000,3952320.000 4013795.000,3952360.000 4013775.000,3952385.000 4013760.000,3952410.000 4013740.000,3952525.000 4013675.000,3952545.000 4013665.000,3952555.000 4013655.000,3952590.000 4013640.000,3952600.000 4013635.000,3952600.000 4013630.000,3952605.000 4013630.000,3952610.000 4013630.000,3952625.000 4013625.000,3952655.000 4013615.000,3952670.000 4013615.000,3952690.000 4013610.000,3952710.000 4013605.000,3952720.000 4013605.000,3952770.000 4013600.000,3952760.000 4013615.000,3952755.000 4013615.000,3952715.000 4013615.000,3952685.000 4013620.000,3952645.000 4013630.000,3952620.000 4013635.000,3952610.000 4013640.000,3952605.000 4013640.000,3952595.000 4013645.000,3952585.000 4013650.000,3952555.000 4013670.000,3952545.000 4013675.000,3952525.000 4013685.000,3952430.000 4013745.000,3952410.000 4013755.000,3952350.000 4013790.000,3952320.000 4013805.000,3952295.000 4013815.000,3952275.000 4013820.000,3952215.000 4013835.000,3952160.000 4013855.000,3952130.000 4013860.000,3952095.000 4013870.000,3952045.000 4013880.000,3952040.000 4013885.000,3952025.000 4013885.000,3951255.000 4012645.000,3951245.000 4012650.000,3951135.000 4012685.000,3951015.000 4012730.000,3950975.000 4012745.000,3950935.000 4012760.000,3950880.000 4012780.000,3950840.000 4012795.000,3950800.000 4012810.000,3950790.000 4012815.000,3950775.000 4012815.000,3950765.000 4012820.000,3950755.000 4012825.000,3950645.000 4012860.000,3950630.000 4012865.000,3950610.000 4012870.000,3950600.000 4012875.000,3950575.000 4012880.000)
