LINESTRING (3951230.000 4013915.000,3951240.000 4013915.000,3951255.000 4013910.000,3951370.000 4013880.000,3951390.000 4013875.000,3951455.000 4013860.000,3951480.000 4013855.000,3951500.000 4013850.000,3951510.000 4013850.000,3951575.000 4013850.000,3951615.000 4013855.000,3951665.000 4013860.000,3951715.000 4013865.000,3951770.000 4013880.000,3951780.000 4013880.000,3951995.000 4013880.000,3952010.000 4013880.000,3952020.000 4013880.000,3952045.000 4013875.000,3952055.000 4013875.000,3952060.000 4013875.000,3952155.000 4013845.000,3952270.000 4013815.000,3952280.000 4013810.000,3952290.000 4013805.000,3952320.000 4013795.000,3952360.000 4013775.000,3952385.000 4013760.000,3952410.000 4013740.000,3952525.000 4013675.000,3952545.000 4013665.000,3952555.000 4013655.000,3952590.000 4013640.000,3952600.000 4013635.000,3952600.000 4013630.000,3952605.000 4013630.000,3952610.000 4013630.000,3952625.000 4013625.000,3952655.000 4013615.000,3952670.000 4013615.000,3952690.000 4013610.000,3952710.000 4013605.000,3952720.000 4013605.000,3952770.000 4013600.000,3952760.000 4013615.000,3952755.000 4013615.000,3952715.000 4013615.000,3952685.000 4013620.000,3952645.000 4013630.000,3952620.000 4013635.000,3952610.000 4013640.000,3952605.000 4013640.000,3952595.000 4013645.000,3952585.000 4013650.000,3952555.000 4013670.000,3952545.000 4013675.000,3952525.000 4013685.000,3952430.000 4013745.000,3952410.000 4013755.000,3952350.000 4013790.000,3952320.000 4013805.000,3952295.000 4013815.000,3952275.000 4013820.000,3952215.000 4013835.000,3952160.000 4013855.000,3952130.000 4013860.000,3952095.000 4013870.000,3952045.000 4013880.000,3952040.000 4013885.000,3952025.000 4013885.000,3951795.000 4013890.000,3951715.000 4013875.000,3951695.000 4013870.000,3951670.000 4013870.000,3951655.000 4013875.000,3951640.000 4013875.000,3951630.000 4013880.000,3951590.000 4013895.000,3951580.000 4013900.000,3951515.000 4013925.000,3951480.000 4013940.000,3951420.000 4013955.000)
